{"version": 0.6, "generator": "Overpass API 0.7.62.7 375dc00a", "osm3s": {"timestamp_osm_base": "2025-08-11T03:13:57Z", "copyright": "The data included in this document is from www.openstreetmap.org. The data is made available under ODbL."}, "elements": [{"type": "node", "id": 456340121, "lat": -23.5363992, "lon": -46.6855758}, {"type": "node", "id": 599043085, "lat": -23.5425477, "lon": -46.6292412}, {"type": "node", "id": 599043092, "lat": -23.5416782, "lon": -46.6290697}, {"type": "node", "id": 599043094, "lat": -23.5420201, "lon": -46.6292205}, {"type": "node", "id": 599043095, "lat": -23.5420366, "lon": -46.6291759}, {"type": "node", "id": 599043097, "lat": -23.542206, "lon": -46.6301626}, {"type": "node", "id": 599043100, "lat": -23.5417442, "lon": -46.6288879}, {"type": "node", "id": 599043104, "lat": -23.5409317, "lon": -46.629602}, {"type": "node", "id": 599043110, "lat": -23.5412722, "lon": -46.6286805}, {"type": "node", "id": 745728723, "lat": -23.5637298, "lon": -46.6361059, "tags": {"amenity": "post_office", "brand": "Empresa Brasileira de Correios e Tel\u00e9grafos", "brand:short": "Correios", "brand:wikidata": "Q3375004", "brand:wikipedia": "en:Correios", "name": "Correios"}}, {"type": "node", "id": 1069542770, "lat": -23.5684762, "lon": -46.6495509, "tags": {"addr:city": "S\u00e3o Paulo", "addr:housenumber": "2375", "addr:postcode": "01401-971", "addr:street": "Avenida Brigadeiro Lu\u00eds Ant\u00f4nio", "alt_name": "Ag\u00eancia dos Correios Jardim Paulista", "amenity": "post_office", "brand": "Empresa Brasileira de Correios e Tel\u00e9grafos", "brand:short": "Correios", "brand:wikidata": "Q3375004", "brand:wikipedia": "en:Correios", "collection_times": "Mo-Fr 09:00-17:00", "name": "Correios", "opening_hours": "Mo-Fr 09:00-17:00", "operator": "Correios", "operator:wikidata": "Q3375004", "operator:wikipedia": "en:Correios", "phone": "+55 11 3884 5265", "wheelchair": "yes"}}, {"type": "node", "id": 1820895151, "lat": -23.57927, "lon": -46.5866714, "tags": {"amenity": "post_office", "brand": "Correios", "brand:wikidata": "Q3375004", "name": "Correios", "source": "GPS"}}, {"type": "node", "id": 2116033926, "lat": -23.5031384, "lon": -46.6289694, "tags": {"addr:city": "S\u00e3o Paulo", "addr:housenumber": "95;103", "addr:postcode": "02013-970", "addr:street": "Rua Fernando Sandreschi", "amenity": "post_office", "brand": "Correios", "brand:wikidata": "Q3375004", "name": "AC Santana", "opening_hours": "Mo-Fr 09:00-17:00", "operator": "Correios", "operator:wikidata": "Q3375004", "phone": "+55 11 4313-9564"}}, {"type": "node", "id": 2116053674, "lat": -23.5028789, "lon": -46.6423521, "tags": {"amenity": "post_office", "name": "AGF Alfredo Pujol", "opening_hours": "Mo-Fr 09:00-17:00"}}, {"type": "node", "id": 2324401943, "lat": -23.5574476, "lon": -46.5237995, "tags": {"amenity": "post_office", "name": "Correios"}}, {"type": "node", "id": 2552889718, "lat": -23.5960553, "lon": -46.8066504}, {"type": "node", "id": 2552889720, "lat": -23.5965382, "lon": -46.8063906}, {"type": "node", "id": 2552889722, "lat": -23.5966445, "lon": -46.807997}, {"type": "node", "id": 2552889723, "lat": -23.5967908, "lon": -46.8062226}, {"type": "node", "id": 2552889724, "lat": -23.5971307, "lon": -46.8077744}, {"type": "node", "id": 2552889725, "lat": -23.5977538, "lon": -46.8084382}, {"type": "node", "id": 2552889726, "lat": -23.5978464, "lon": -46.8056988}, {"type": "node", "id": 2552889727, "lat": -23.5978657, "lon": -46.808401}, {"type": "node", "id": 2552889728, "lat": -23.5979387, "lon": -46.8085807}, {"type": "node", "id": 2552889729, "lat": -23.5979554, "lon": -46.8053021}, {"type": "node", "id": 2552889730, "lat": -23.59834, "lon": -46.8083713}, {"type": "node", "id": 2552889731, "lat": -23.5984276, "lon": -46.8085437}, {"type": "node", "id": 2552889732, "lat": -23.5989047, "lon": -46.8082984}, {"type": "node", "id": 2552889733, "lat": -23.5989181, "lon": -46.8048302}, {"type": "node", "id": 2552889734, "lat": -23.5993207, "lon": -46.808461}, {"type": "node", "id": 2552889735, "lat": -23.6002668, "lon": -46.8080195}, {"type": "node", "id": 2601183143, "lat": -23.5297917, "lon": -46.6219508, "tags": {"addr:city": "s\u00e3o paulo", "addr:housenumber": "569", "addr:postcode": "03032-030", "addr:street": "Rua Carnot", "building": "warehouse", "opening_hours": "Mo-Fr 08:00-18:00"}}, {"type": "node", "id": 2613631274, "lat": -23.5308367, "lon": -46.6013705, "tags": {"addr:city": "S\u00e3o Paulo", "addr:housenumber": "100", "addr:postcode": "03021-040", "addr:street": "Rua Jequitinhonha"}}, {"type": "node", "id": 2613631275, "lat": -23.5307547, "lon": -46.6008565, "tags": {"addr:city": "S\u00e3o Paulo", "addr:housenumber": "130", "addr:postcode": "03021-040", "addr:street": "Rua Jequitinhonha"}}, {"type": "node", "id": 2632623529, "lat": -23.6300776, "lon": -46.6050663, "tags": {"addr:street": "Rua Nossa Senhora das Merc\u00eas", "amenity": "post_office", "brand": "Correios", "brand:wikidata": "Q3375004", "name": "AC Vila das Merces", "operator": "Correios", "phone": "+55 11 2946 1879", "website": "http://www.correios.com.br/"}}, {"type": "node", "id": 2862747293, "lat": -23.5586167, "lon": -46.661532, "tags": {"addr:city": "S\u00e3o Paulo", "addr:housenumber": "2222", "addr:postcode": "01418-200", "addr:street": "Alameda Santos", "amenity": "post_office", "brand": "Empresa Brasileira de Correios e Tel\u00e9grafos", "brand:short": "Correios", "brand:wikidata": "Q3375004", "brand:wikipedia": "en:Correios", "name": "Correios"}}, {"type": "node", "id": 2882703436, "lat": -23.5195168, "lon": -46.6020776, "tags": {"addr:city": "S\u00e3o Paulo", "addr:housenumber": "505", "addr:postcode": "02060-000", "addr:street": "Rua Serafim de Carvalho", "building": "warehouse", "entrance": "yes", "name": "Transportadora Route", "office": "company"}}, {"type": "node", "id": 2888320138, "lat": -23.5429386, "lon": -46.4947008}, {"type": "node", "id": 2898079718, "lat": -23.7729883, "lon": -46.7065282, "tags": {"addr:city": "S\u00e3o Paulo", "addr:housenumber": "118", "addr:street": "Rua Constela\u00e7\u00e3o do Caranguejo", "building": "warehouse"}}, {"type": "node", "id": 2933449219, "lat": -23.5375445, "lon": -46.5990636, "tags": {"addr:city": "S\u00e3o Paulo", "addr:housenumber": "60", "addr:postcode": "03021-000", "addr:street": "Rua Catumbi", "building": "warehouse"}}, {"type": "node", "id": 3058186382, "lat": -23.571812, "lon": -46.6442405, "tags": {"amenity": "post_office", "brand": "Empresa Brasileira de Correios e Tel\u00e9grafos", "brand:short": "Correios", "brand:wikidata": "Q3375004", "name": "AC Rafael de Barros", "operator": "Correios"}}, {"type": "node", "id": 3302793602, "lat": -23.6254962, "lon": -46.6843561, "tags": {"amenity": "post_office", "brand": "Correios", "brand:wikidata": "Q3375004", "brand:wikipedia": "en:Correios", "name": "Correios", "operator": "Correios", "website": "https://www.correios.com.br/"}}, {"type": "node", "id": 3358529884, "lat": -23.5419789, "lon": -46.6300627}, {"type": "node", "id": 3358529890, "lat": -23.5419888, "lon": -46.6292063}, {"type": "node", "id": 3358530143, "lat": -23.5421066, "lon": -46.6301188}, {"type": "node", "id": 3358530745, "lat": -23.5410526, "lon": -46.6296553}, {"type": "node", "id": 3358530750, "lat": -23.5410906, "lon": -46.6291718, "tags": {"bicycle": "yes", "entrance": "main", "ref": "1"}}, {"type": "node", "id": 3358530752, "lat": -23.5410985, "lon": -46.6296756}, {"type": "node", "id": 3358530758, "lat": -23.5411138, "lon": -46.6296823, "tags": {"bicycle": "yes", "entrance": "yes", "ref": "2"}}, {"type": "node", "id": 3358530764, "lat": -23.5411296, "lon": -46.6296892}, {"type": "node", "id": 3358530780, "lat": -23.5411768, "lon": -46.62971}, {"type": "node", "id": 3358531896, "lat": -23.541224, "lon": -46.6297307}, {"type": "node", "id": 3358531909, "lat": -23.5412424, "lon": -46.6297389, "tags": {"bicycle": "yes", "entrance": "yes", "ref": "3"}}, {"type": "node", "id": 3358531922, "lat": -23.5412621, "lon": -46.6297477}, {"type": "node", "id": 3358532037, "lat": -23.5413105, "lon": -46.629769}, {"type": "node", "id": 3358532060, "lat": -23.5413422, "lon": -46.6297829}, {"type": "node", "id": 3358532067, "lat": -23.5413546, "lon": -46.6297883, "tags": {"bicycle": "yes", "entrance": "yes", "ref": "4"}}, {"type": "node", "id": 3358532077, "lat": -23.5413715, "lon": -46.6297957}, {"type": "node", "id": 3358532196, "lat": -23.5413963, "lon": -46.6298066}, {"type": "node", "id": 3358532343, "lat": -23.5414543, "lon": -46.6298323}, {"type": "node", "id": 3358532352, "lat": -23.5414696, "lon": -46.6298387, "tags": {"bicycle": "yes", "entrance": "yes", "ref": "5"}}, {"type": "node", "id": 3358532363, "lat": -23.5414854, "lon": -46.6298453}, {"type": "node", "id": 3358532396, "lat": -23.5415323, "lon": -46.6298658}, {"type": "node", "id": 3358532418, "lat": -23.5415636, "lon": -46.6298795}, {"type": "node", "id": 3358532427, "lat": -23.5415752, "lon": -46.6298847, "tags": {"bicycle": "yes", "entrance": "yes", "ref": "6"}}, {"type": "node", "id": 3358532437, "lat": -23.5415858, "lon": -46.6298894}, {"type": "node", "id": 3358532445, "lat": -23.5415963, "lon": -46.628823}, {"type": "node", "id": 3358532463, "lat": -23.5416131, "lon": -46.6299014}, {"type": "node", "id": 3358532466, "lat": -23.5416192, "lon": -46.6299042}, {"type": "node", "id": 3358532541, "lat": -23.5417223, "lon": -46.6290898}, {"type": "node", "id": 3358532564, "lat": -23.5417527, "lon": -46.6291031}, {"type": "node", "id": 3358532569, "lat": -23.5417639, "lon": -46.6299677}, {"type": "node", "id": 3358532581, "lat": -23.5417838, "lon": -46.6291166}, {"type": "node", "id": 3358532587, "lat": -23.5417906, "lon": -46.6299795}, {"type": "node", "id": 3358532607, "lat": -23.5416713, "lon": -46.629927}, {"type": "node", "id": 3358532623, "lat": -23.5416887, "lon": -46.6299347, "tags": {"bicycle": "yes", "entrance": "yes", "ref": "7"}}, {"type": "node", "id": 3358532626, "lat": -23.541694, "lon": -46.6290253}, {"type": "node", "id": 3358532637, "lat": -23.541708, "lon": -46.629943}, {"type": "node", "id": 3358532900, "lat": -23.5418134, "lon": -46.6299896, "tags": {"bicycle": "yes", "entrance": "yes", "ref": "8"}}, {"type": "node", "id": 3358532903, "lat": -23.5418154, "lon": -46.6291302}, {"type": "node", "id": 3358532928, "lat": -23.5418389, "lon": -46.6300008}, {"type": "node", "id": 3358532932, "lat": -23.5418464, "lon": -46.6291436}, {"type": "node", "id": 3358532947, "lat": -23.5418645, "lon": -46.6300121}, {"type": "node", "id": 3358532953, "lat": -23.5418782, "lon": -46.6291578}, {"type": "node", "id": 3358532978, "lat": -23.5419068, "lon": -46.6300307}, {"type": "node", "id": 3358532980, "lat": -23.5419076, "lon": -46.6291708}, {"type": "node", "id": 3358533093, "lat": -23.5419216, "lon": -46.6300373, "tags": {"bicycle": "yes", "entrance": "yes", "ref": "9"}}, {"type": "node", "id": 3358533107, "lat": -23.5419382, "lon": -46.6300447}, {"type": "node", "id": 3358533108, "lat": -23.5419392, "lon": -46.6291847}, {"type": "node", "id": 3358533305, "lat": -23.5420071, "lon": -46.6292146}, {"type": "node", "id": 3358533311, "lat": -23.5420212, "lon": -46.6300814}, {"type": "node", "id": 3358533332, "lat": -23.542045, "lon": -46.6300918, "tags": {"bicycle": "yes", "entrance": "yes", "ref": "10"}}, {"type": "node", "id": 3358533355, "lat": -23.5420682, "lon": -46.630102}, {"type": "node", "id": 3358533374, "lat": -23.5420876, "lon": -46.6290382}, {"type": "node", "id": 3358533616, "lat": -23.5422364, "lon": -46.6291038}, {"type": "node", "id": 3358533647, "lat": -23.5423654, "lon": -46.6297327, "tags": {"bicycle": "yes", "entrance": "main", "ref": "11"}}, {"type": "node", "id": 3358533649, "lat": -23.5424395, "lon": -46.6291935}, {"type": "node", "id": 3414739656, "lat": -23.5252551, "lon": -46.6139, "tags": {"addr:city": "S\u00e3o Paulo", "addr:housenumber": "220", "addr:postcode": "03035-000", "addr:street": "Avenida Bom Jardim", "building": "warehouse"}}, {"type": "node", "id": 3414739658, "lat": -23.5252305, "lon": -46.6147089, "tags": {"addr:city": "S\u00e3o Paulo", "addr:housenumber": "315", "addr:postcode": "03035-000", "addr:street": "Avenida Bom Jardim", "building": "warehouse"}}, {"type": "node", "id": 3414739659, "lat": -23.5253167, "lon": -46.6144918, "tags": {"addr:city": "S\u00e3o Paulo", "addr:housenumber": "285", "addr:postcode": "03035-000", "addr:street": "Avenida Bom Jardim", "building": "warehouse", "name": "TransAtual"}}, {"type": "node", "id": 3414739661, "lat": -23.5253579, "lon": -46.6143876, "tags": {"addr:city": "S\u00e3o Paulo", "addr:housenumber": "275", "addr:postcode": "03035-000", "addr:street": "Avenida Bom Jardim", "building": "warehouse"}}, {"type": "node", "id": 3414783363, "lat": -23.5248279, "lon": -46.6149777, "tags": {"addr:city": "S\u00e3o Paulo", "addr:housenumber": "346", "addr:postcode": "03035-000", "addr:street": "Avenida Bom Jardim"}}, {"type": "node", "id": 3414891688, "lat": -23.526928, "lon": -46.622429, "tags": {"addr:city": "S\u00e3o Paulo", "addr:housenumber": "872", "addr:postcode": "03033-000", "addr:street": "Rua Canind\u00e9", "building": "warehouse"}}, {"type": "node", "id": 3414891689, "lat": -23.5269774, "lon": -46.6223968, "tags": {"addr:city": "S\u00e3o Paulo", "addr:housenumber": "864", "addr:postcode": "03033-000", "addr:street": "Rua Canind\u00e9", "building": "warehouse"}}, {"type": "node", "id": 3414891692, "lat": -23.5270621, "lon": -46.6223415, "tags": {"addr:city": "S\u00e3o Paulo", "addr:housenumber": "854", "addr:postcode": "03033-000", "addr:street": "Rua Canind\u00e9", "building": "warehouse"}}, {"type": "node", "id": 3414891793, "lat": -23.5271187, "lon": -46.6223047, "tags": {"addr:city": "S\u00e3o Paulo", "addr:housenumber": "840", "addr:postcode": "03033-000", "addr:street": "Rua Canind\u00e9", "building": "warehouse"}}, {"type": "node", "id": 3414891794, "lat": -23.5271422, "lon": -46.6222894, "tags": {"addr:city": "S\u00e3o Paulo", "addr:housenumber": "838", "addr:postcode": "03033-000", "addr:street": "Rua Canind\u00e9", "building": "warehouse"}}, {"type": "node", "id": 3414891796, "lat": -23.52724, "lon": -46.6222256, "tags": {"addr:city": "S\u00e3o Paulo", "addr:housenumber": "828", "addr:postcode": "03033-000", "addr:street": "Rua Canind\u00e9", "building": "warehouse", "name": "Vazio", "smoking": "no"}}, {"type": "node", "id": 3429193745, "lat": -23.5071161, "lon": -46.6263209, "tags": {"addr:city": "S\u00e3o Paulo", "addr:housenumber": "1511", "addr:postcode": "02011-200", "addr:street": "Rua Volunt\u00e1rios da P\u00e1tria"}}, {"type": "node", "id": 3438027834, "lat": -23.5082235, "lon": -46.5963449}, {"type": "node", "id": 3441028622, "lat": -23.5269672, "lon": -46.6114994, "tags": {"addr:city": "S\u00e3o Paulo", "addr:housenumber": "669", "addr:postcode": "03027-020", "addr:street": "Rua Doutor Virg\u00edlio do Nascimento", "building": "warehouse"}}, {"type": "node", "id": 3443543820, "lat": -23.5259548, "lon": -46.6121422, "tags": {"addr:city": "S\u00e3o Paulo", "addr:housenumber": "70", "addr:street": "Avenida Bom Jardim", "building": "warehouse"}}, {"type": "node", "id": 3447253793, "lat": -23.5593095, "lon": -46.4833762, "tags": {"addr:city": "S\u00e3o Paulo", "addr:housenumber": "241", "addr:postcode": "03588-040", "addr:street": "Rua Mu\u00e7urepe", "building": "warehouse"}}, {"type": "node", "id": 3456352981, "lat": -23.5266793, "lon": -46.6100969, "tags": {"addr:city": "S\u00e3o Paulo", "addr:housenumber": "337", "addr:postcode": "03028-040", "addr:street": "Rua Siqueira Afonso"}}, {"type": "node", "id": 3458503826, "lat": -23.6275191, "lon": -46.5991908, "tags": {"addr:city": "S\u00e3o Paulo", "addr:housenumber": "220", "addr:postcode": "04298-060", "addr:street": "Rua Alberto I", "building": "warehouse"}}, {"type": "node", "id": 3458503830, "lat": -23.6277501, "lon": -46.600717, "tags": {"addr:city": "S\u00e3o Paulo", "addr:housenumber": "48", "addr:postcode": "04298-060", "addr:street": "Rua Alberto I", "building": "warehouse"}}, {"type": "node", "id": 3473929237, "lat": -23.5231262, "lon": -46.6168998, "tags": {"addr:city": "S\u00e3o Paulo", "addr:housenumber": "744", "addr:postcode": "03034-000", "addr:street": "Rua Araguaia", "building": "warehouse"}}, {"type": "node", "id": 3473929246, "lat": -23.5262207, "lon": -46.6195368, "tags": {"addr:city": "S\u00e3o Paulo", "addr:housenumber": "310", "addr:postcode": "03034-000", "addr:street": "Rua Araguaia", "building": "warehouse", "name": "Primar"}}, {"type": "node", "id": 3473954856, "lat": -23.5241771, "lon": -46.6197745}, {"type": "node", "id": 3473954857, "lat": -23.5243075, "lon": -46.6195546}, {"type": "node", "id": 3473954858, "lat": -23.5250133, "lon": -46.6199569}, {"type": "node", "id": 3473954859, "lat": -23.5249346, "lon": -46.6201178}, {"type": "node", "id": 3473954860, "lat": -23.524851, "lon": -46.6202466}, {"type": "node", "id": 3479047574, "lat": -23.5733114, "lon": -46.5647355, "tags": {"addr:city": "S\u00e3o Paulo", "addr:housenumber": "47", "addr:street": "Rua Lav\u00ednia Ribeiro", "building": "warehouse"}}, {"type": "node", "id": 3479723328, "lat": -23.5325783, "lon": -46.600644, "tags": {"addr:city": "S\u00e3o Paulo", "addr:housenumber": "11", "addr:street": "Travessa Cavalheiro", "building": "warehouse"}}, {"type": "node", "id": 3505748966, "lat": -23.5424068, "lon": -46.6109809, "tags": {"addr:city": "S\u00e3o Paulo", "addr:housenumber": "270", "addr:postcode": "03052-020", "addr:street": "Rua Jos\u00e9 de Alencar", "building": "warehouse"}}, {"type": "node", "id": 3509242844, "lat": -23.5289667, "lon": -46.6226023, "tags": {"addr:city": "S\u00e3o Paulo", "addr:housenumber": "630", "addr:postcode": "03033-000", "addr:street": "Rua Canind\u00e9", "building": "warehouse"}}, {"type": "node", "id": 3510295101, "lat": -23.534687, "lon": -46.6071261, "tags": {"addr:city": "S\u00e3o Paulo", "addr:housenumber": "169", "addr:postcode": "03023-000", "addr:street": "Rua Rio Bonito", "building": "warehouse"}}, {"type": "node", "id": 3510399497, "lat": -23.5312922, "lon": -46.6162971, "tags": {"addr:city": "S\u00e3o Paulo", "addr:housenumber": "247", "addr:postcode": "03029-030", "addr:street": "Rua Doutor Ornelas", "amenity": "post_office"}}, {"type": "node", "id": 3510399504, "lat": -23.5299352, "lon": -46.6165316, "tags": {"addr:city": "S\u00e3o Paulo", "addr:housenumber": "440", "addr:postcode": "03029-000", "addr:street": "Rua Coronel Morais", "building": "warehouse"}}, {"type": "node", "id": 3517900108, "lat": -23.540061, "lon": -46.6204113, "tags": {"addr:city": "S\u00e3o Paulo", "addr:housenumber": "4", "addr:postcode": "03009-010", "addr:street": "Rua Rodrigues dos Santos", "building": "warehouse"}}, {"type": "node", "id": 3522349589, "lat": -23.5246098, "lon": -46.6413562, "tags": {"addr:city": "S\u00e3o Paulo", "addr:housenumber": "791", "addr:postcode": "01125-001", "addr:street": "Rua da Gra\u00e7a", "building": "warehouse"}}, {"type": "node", "id": 3529313811, "lat": -23.528728, "lon": -46.6184284, "tags": {"addr:city": "S\u00e3o Paulo", "addr:housenumber": "148", "addr:postcode": "03029-080", "addr:street": "Rua Paganini", "building": "warehouse"}}, {"type": "node", "id": 3529428747, "lat": -23.5241102, "lon": -46.6130212, "tags": {"addr:city": "S\u00e3o Paulo", "addr:housenumber": "555", "addr:postcode": "03035-050", "addr:street": "Rua Guarant\u00e3", "building": "warehouse"}}, {"type": "node", "id": 3531384141, "lat": -23.5362853, "lon": -46.6071838, "tags": {"addr:city": "S\u00e3o Paulo", "addr:housenumber": "26", "addr:postcode": "03023-020", "addr:street": "Rua Behring", "amenity": "parking_entrance", "building": "warehouse"}}, {"type": "node", "id": 3531384154, "lat": -23.5371326, "lon": -46.6033951, "tags": {"addr:city": "S\u00e3o Paulo", "addr:housenumber": "192", "addr:postcode": "03019-020", "addr:street": "Rua Jos\u00e9 Kauer", "building": "warehouse"}}, {"type": "node", "id": 3545276740, "lat": -23.4737892, "lon": -46.5759891, "tags": {"addr:city": "S\u00e3o Paulo", "addr:housenumber": "3801", "addr:postcode": "02258-000", "addr:street": "Avenida J\u00falio Buono", "building": "warehouse"}}, {"type": "node", "id": 3551071916, "lat": -23.5103439, "lon": -46.5944243, "tags": {"addr:city": "S\u00e3o Paulo", "addr:housenumber": "82", "addr:postcode": "02120-000", "addr:street": "Rua Curu\u00e7\u00e1", "building": "warehouse"}}, {"type": "node", "id": 3570318390, "lat": -23.5890198, "lon": -46.5957574, "tags": {"addr:city": "S\u00e3o Paulo", "addr:housenumber": "60", "addr:postcode": "04222-000", "addr:street": "Rua Auriverde", "building": "warehouse"}}, {"type": "node", "id": 3570318391, "lat": -23.5888748, "lon": -46.5956019, "tags": {"addr:city": "S\u00e3o Paulo", "addr:housenumber": "47", "addr:postcode": "04222-000", "addr:street": "Rua Auriverde", "building": "warehouse"}}, {"type": "node", "id": 3570320921, "lat": -23.5681219, "lon": -46.6046959, "tags": {"addr:city": "S\u00e3o Paulo", "addr:housenumber": "1681", "addr:postcode": "03107-001", "addr:street": "Avenida Presidente Wilson", "building": "warehouse"}}, {"type": "node", "id": 3577087444, "lat": -23.5181583, "lon": -46.5949181, "tags": {"addr:city": "S\u00e3o Paulo", "addr:housenumber": "800", "addr:postcode": "02110-000", "addr:street": "Avenida Nadir Dias de Figueiredo", "building": "warehouse", "name": "Fabrica de Gelo", "note": "Venda ao Publico em Geral"}}, {"type": "node", "id": 3605934947, "lat": -23.554914, "lon": -46.4933476, "tags": {"addr:city": "S\u00e3o Paulo", "addr:housenumber": "127", "addr:street": "Rua  Brasilina Ilka Barbosa Ferraz", "building": "warehouse"}}, {"type": "node", "id": 3605934950, "lat": -23.5555607, "lon": -46.4946404, "tags": {"addr:city": "S\u00e3o Paulo", "addr:housenumber": "145", "addr:street": "Rua Bilimbi", "building": "warehouse", "name": "Ultragaz"}}, {"type": "node", "id": 3643215863, "lat": -23.4844493, "lon": -46.4893603}, {"type": "node", "id": 3643215864, "lat": -23.4845385, "lon": -46.4892184}, {"type": "node", "id": 3643215865, "lat": -23.4845571, "lon": -46.4892038}, {"type": "node", "id": 3643215868, "lat": -23.4844883, "lon": -46.4892983}, {"type": "node", "id": 3643215870, "lat": -23.4842863, "lon": -46.4896255, "tags": {"addr:city": "S\u00e3o Paulo", "addr:housenumber": "7758", "addr:postcode": "03827-000", "addr:street": "Avenida Doutor Assis Ribeiro", "building": "warehouse"}}, {"type": "node", "id": 3643215872, "lat": -23.4838583, "lon": -46.4903243, "tags": {"addr:city": "S\u00e3o Paulo", "addr:housenumber": "7764", "addr:postcode": "03827-000", "addr:street": "Avenida Doutor Assis Ribeiro", "building": "warehouse"}}, {"type": "node", "id": 3643220204, "lat": -23.4862513, "lon": -46.5033538, "tags": {"addr:city": "S\u00e3o Paulo", "addr:housenumber": "5951", "addr:postcode": "03827-000", "addr:street": "Avenida Doutor Assis Ribeiro", "building": "warehouse"}}, {"type": "node", "id": 3643220205, "lat": -23.487183, "lon": -46.5040505, "tags": {"addr:city": "S\u00e3o Paulo", "addr:housenumber": "5850", "addr:postcode": "03827-000", "addr:street": "Avenida Doutor Assis Ribeiro", "building": "warehouse"}}, {"type": "node", "id": 3643220212, "lat": -23.4903145, "lon": -46.5051797, "tags": {"addr:city": "S\u00e3o Paulo", "addr:housenumber": "5480", "addr:postcode": "03827-000", "addr:street": "Avenida Doutor Assis Ribeiro", "building": "warehouse"}}, {"type": "node", "id": 3643220213, "lat": -23.4908951, "lon": -46.5053943, "tags": {"addr:city": "S\u00e3o Paulo", "addr:housenumber": "5424", "addr:postcode": "03827-000", "addr:street": "Avenida Doutor Assis Ribeiro", "building": "warehouse"}}, {"type": "node", "id": 3643220214, "lat": -23.4912554, "lon": -46.5055417, "tags": {"addr:city": "S\u00e3o Paulo", "addr:housenumber": "5210", "addr:postcode": "03827-000", "addr:street": "Avenida Doutor Assis Ribeiro", "building": "warehouse"}}, {"type": "node", "id": 3643220215, "lat": -23.4919417, "lon": -46.5058314, "tags": {"addr:city": "S\u00e3o Paulo", "addr:housenumber": "5150", "addr:postcode": "03827-000", "addr:street": "Avenida Doutor Assis Ribeiro", "building": "warehouse"}}, {"type": "node", "id": 3643220217, "lat": -23.4936489, "lon": -46.5068909, "tags": {"addr:city": "S\u00e3o Paulo", "addr:housenumber": "4902", "addr:postcode": "03827-000", "addr:street": "Avenida Doutor Assis Ribeiro", "building": "warehouse", "name": "Jb Pneus", "shop": "tyres"}}, {"type": "node", "id": 3643220221, "lat": -23.4959292, "lon": -46.510933}, {"type": "node", "id": 3643220222, "lat": -23.4960128, "lon": -46.5109089}, {"type": "node", "id": 3643220223, "lat": -23.4959882, "lon": -46.5106728}, {"type": "node", "id": 3643220224, "lat": -23.4959513, "lon": -46.5103805}, {"type": "node", "id": 3643220225, "lat": -23.4959218, "lon": -46.5102356}, {"type": "node", "id": 3643220226, "lat": -23.4957029, "lon": -46.5102598}, {"type": "node", "id": 3643220227, "lat": -23.4950116, "lon": -46.5087393, "tags": {"addr:city": "S\u00e3o Paulo", "addr:housenumber": "4687", "addr:postcode": "03717-004", "addr:street": "Avenida Doutor Assis Ribeiro", "building": "warehouse"}}, {"type": "node", "id": 3643220228, "lat": -23.4948191, "lon": -46.508524, "tags": {"addr:city": "S\u00e3o Paulo", "addr:housenumber": "4701", "addr:postcode": "03827-000", "addr:street": "Avenida Doutor Assis Ribeiro", "building": "warehouse"}}, {"type": "node", "id": 3649075459, "lat": -23.5019496, "lon": -46.5338222, "tags": {"addr:city": "S\u00e3o Paulo", "addr:postcode": "03717-002", "addr:street": "Avenida Doutor Assis Ribeiro", "building": "warehouse"}}, {"type": "node", "id": 3649075466, "lat": -23.5033506, "lon": -46.5361031, "tags": {"addr:city": "S\u00e3o Paulo", "addr:housenumber": "1734", "addr:postcode": "03717-002", "addr:street": "Avenida Doutor Assis Ribeiro", "building": "warehouse"}}, {"type": "node", "id": 3649075467, "lat": -23.5038561, "lon": -46.5369742, "tags": {"addr:city": "S\u00e3o Paulo", "addr:housenumber": "1680", "addr:postcode": "03717-002", "addr:street": "Avenida Doutor Assis Ribeiro", "building": "warehouse"}}, {"type": "node", "id": 3649075468, "lat": -23.504089, "lon": -46.537502, "tags": {"addr:city": "S\u00e3o Paulo", "addr:housenumber": "1602", "addr:postcode": "03717-002", "addr:street": "Avenida Doutor Assis Ribeiro", "building": "warehouse"}}, {"type": "node", "id": 3649136472, "lat": -23.50963, "lon": -46.5499497}, {"type": "node", "id": 3649136473, "lat": -23.5096614, "lon": -46.5496366}, {"type": "node", "id": 3649136474, "lat": -23.5095439, "lon": -46.5497804}, {"type": "node", "id": 3649136475, "lat": -23.5097918, "lon": -46.5494769}, {"type": "node", "id": 3649136476, "lat": -23.5098489, "lon": -46.5496038}, {"type": "node", "id": 3649136477, "lat": -23.509876, "lon": -46.549646}, {"type": "node", "id": 3649830259, "lat": -23.5251804, "lon": -46.4791922, "tags": {"addr:city": "S\u00e3o Paulo", "addr:housenumber": "235", "addr:postcode": "03685-000", "addr:street": "Rua Sonho Ga\u00facho", "building": "warehouse"}}, {"type": "node", "id": 3666756701, "lat": -23.551887, "lon": -46.6404522, "tags": {"addr:city": "S\u00e3o Paulo", "addr:housenumber": "245", "addr:postcode": "01314-000", "addr:street": "Rua Santo Amaro", "amenity": "post_office", "description": "Estava na \nRua Santo Ant\u00f4nio, 300", "name": "Correio"}}, {"type": "node", "id": 3701267877, "lat": -23.5221109, "lon": -46.6452111, "tags": {"addr:city": "S\u00e3o Paulo", "addr:housenumber": "909", "addr:postcode": "01131-000", "addr:street": "Rua dos Italianos", "building": "warehouse"}}, {"type": "node", "id": 3702332924, "lat": -23.5388625, "lon": -46.6329984, "tags": {"addr:city": "S\u00e3o Paulo", "addr:housenumber": "591", "addr:postcode": "01029-001", "addr:street": "Rua Flor\u00eancio de Abreu", "amenity": "post_office", "brand": "Empresa Brasileira de Correios e Tel\u00e9grafos", "brand:short": "Correios", "brand:wikidata": "Q3375004", "name": "Correios", "operator": "Correios", "operator:wikidata": "Q3375004", "operator:wikipedia": "en:Correios"}}, {"type": "node", "id": 3702334525, "lat": -23.5438076, "lon": -46.6450236, "tags": {"addr:city": "S\u00e3o Paulo", "addr:country": "BR", "addr:housenumber": "76", "addr:postcode": "01223-970", "addr:street": "Rua Marqu\u00eas de Itu", "addr:suburb": "Vila Buarque", "alt_name": "AC Marqu\u00eas de Itu", "amenity": "post_office", "brand": "Empresa Brasileira de Correios e Tel\u00e9grafos", "brand:short": "Correios", "brand:wikidata": "Q3375004", "brand:wikipedia": "en:Correios", "name": "Correios", "opening_hours": "Mo-Fr 09:00-17:00"}}, {"type": "node", "id": 3712572809, "lat": -23.5834474, "lon": -46.5993177}, {"type": "node", "id": 3712572810, "lat": -23.5834511, "lon": -46.5992167}, {"type": "node", "id": 3712572811, "lat": -23.5833528, "lon": -46.5992123}, {"type": "node", "id": 3712572812, "lat": -23.5833563, "lon": -46.599118}, {"type": "node", "id": 3712572813, "lat": -23.583409, "lon": -46.5991203}, {"type": "node", "id": 3712572814, "lat": -23.5834126, "lon": -46.5990231}, {"type": "node", "id": 3712572815, "lat": -23.5832049, "lon": -46.599014}, {"type": "node", "id": 3712572816, "lat": -23.5832013, "lon": -46.5991118}, {"type": "node", "id": 3712572817, "lat": -23.5832798, "lon": -46.5991152}, {"type": "node", "id": 3712572818, "lat": -23.5832762, "lon": -46.5992103}, {"type": "node", "id": 3712572819, "lat": -23.5831946, "lon": -46.5992067}, {"type": "node", "id": 3751731889, "lat": -23.5291244, "lon": -46.5796731}, {"type": "node", "id": 3751731891, "lat": -23.5283777, "lon": -46.5795949}, {"type": "node", "id": 3751731892, "lat": -23.5286188, "lon": -46.5800148}, {"type": "node", "id": 3756403711, "lat": -23.5777688, "lon": -46.6411229, "tags": {"addr:city": "S\u00e3o Paulo", "addr:housenumber": "68", "addr:street": "Rua Domingos de Morais", "amenity": "post_office", "brand": "Empresa Brasileira de Correios e Tel\u00e9grafos", "brand:short": "Correios", "brand:wikidata": "Q3375004", "brand:wikipedia": "en:Correios", "name": "Correios"}}, {"type": "node", "id": 3784363231, "lat": -23.5514112, "lon": -46.6354739, "tags": {"addr:city": "S\u00e3o Paulo", "addr:housenumber": "32", "addr:postcode": "01501-000", "addr:street": "Pra\u00e7a Doutor Jo\u00e3o Mendes", "amenity": "post_office"}}, {"type": "node", "id": 3791488223, "lat": -23.5146965, "lon": -46.6562843, "tags": {"addr:city": "S\u00e3o Paulo", "addr:housenumber": "293", "addr:postcode": "02512-010", "addr:street": "Rua Zanzibar", "amenity": "post_office"}}, {"type": "node", "id": 3806707370, "lat": -23.5995813, "lon": -46.6424822, "tags": {"addr:city": "S\u00e3o Paulo", "addr:housenumber": "1736", "addr:postcode": "04040-003", "addr:street": "Rua Loefgren", "building": "warehouse"}}, {"type": "node", "id": 3816402622, "lat": -23.5360275, "lon": -46.6202257, "tags": {"addr:city": "S\u00e3o Paulo", "addr:housenumber": "214", "addr:postcode": "03009-030", "addr:street": "Rua Elisa Whitacker", "building": "warehouse"}}, {"type": "node", "id": 3863107136, "lat": -23.4391112, "lon": -46.7381695}, {"type": "node", "id": 3863107137, "lat": -23.4390912, "lon": -46.739736}, {"type": "node", "id": 3863107138, "lat": -23.4392407, "lon": -46.7397334}, {"type": "node", "id": 3863107140, "lat": -23.4413179, "lon": -46.7400362}, {"type": "node", "id": 3863107141, "lat": -23.4414521, "lon": -46.7399928}, {"type": "node", "id": 3863107142, "lat": -23.4413184, "lon": -46.7399942}, {"type": "node", "id": 3863107143, "lat": -23.441454, "lon": -46.7392528}, {"type": "node", "id": 3863107144, "lat": -23.4403745, "lon": -46.7391365}, {"type": "node", "id": 3863107145, "lat": -23.4401064, "lon": -46.7381615}, {"type": "node", "id": 3863107146, "lat": -23.4392804, "lon": -46.738157}, {"type": "node", "id": 3875000511, "lat": -23.5221273, "lon": -46.5178199, "tags": {"amenity": "post_office", "brand": "Empresa Brasileira de Correios e Tel\u00e9grafos", "brand:short": "Correios", "brand:wikidata": "Q3375004", "name": "ACF Vila Esperan\u00e7a"}}, {"type": "node", "id": 3944912699, "lat": -23.5354607, "lon": -46.5749146, "tags": {"addr:city": "S\u00e3o Paulo", "addr:housenumber": "3868", "addr:postcode": "03064-000", "addr:street": "Avenida Celso Garcia", "amenity": "post_office", "brand": "Correios", "brand:wikidata": "Q3375004", "name": "Correios", "operator": "Correios", "operator:wikidata": "Q3375004"}}, {"type": "node", "id": 3951033790, "lat": -23.5244502, "lon": -46.6142436}, {"type": "node", "id": 3951033791, "lat": -23.5244785, "lon": -46.6141724}, {"type": "node", "id": 3960685980, "lat": -23.4936911, "lon": -46.5750627, "tags": {"addr:city": "S\u00e3o Paulo", "addr:housenumber": "94", "addr:postcode": "02138-970", "addr:street": "Avenida Professor Castro Junior", "amenity": "post_office"}}, {"type": "node", "id": 4030731042, "lat": -23.5562512, "lon": -46.5950155, "tags": {"addr:city": "S\u00e3o Paulo", "addr:housenumber": "3107", "addr:postcode": "03165-001", "addr:street": "Rua da Mooca", "addr:suburb": "Mooca", "amenity": "post_office", "brand": "Correios", "brand:wikidata": "Q3375004", "name": "Correios", "operator": "Correios", "operator:wikidata": "Q3375004"}}, {"type": "node", "id": 4067845890, "lat": -23.6013133, "lon": -46.6034212, "tags": {"addr:city": "S\u00e3o Paulo", "addr:street": "Rua Greenfeld", "addr:suburb": "Ipiranga", "amenity": "post_office", "brand": "Correios", "brand:wikidata": "Q3375004", "name": "Correios"}}, {"type": "node", "id": 4077507719, "lat": -23.6099964, "lon": -46.6377233, "tags": {"addr:city": "S\u00e3o Paulo", "addr:housenumber": "683", "addr:postcode": "04045-001", "addr:street": "Avenida Jabaquara", "addr:suburb": "Vila da Sa\u00fade", "amenity": "post_office", "brand": "Correios", "brand:wikidata": "Q3375004", "description": "Os pagamentos de envio s\u00e3o feitos apenas em dinheiro ou transfer\u00eancia Pix, por ser uma ag\u00eancia franqueada.", "name": "Correios Pra\u00e7a da \u00c1rvore", "opening_hours": "Seg-Sex 08:30-18:00"}}, {"type": "node", "id": 4077530089, "lat": -23.565844, "lon": -46.6393153, "tags": {"amenity": "post_office", "brand": "Empresa Brasileira de Correios e Tel\u00e9grafos", "brand:short": "Correios", "brand:wikidata": "Q3375004", "name": "AC S\u00e3o Joaquim", "operator": "Correios"}}, {"type": "node", "id": 4089841598, "lat": -23.4861192, "lon": -46.6166502}, {"type": "node", "id": 4094273094, "lat": -23.5642339, "lon": -46.654384}, {"type": "node", "id": 4203587696, "lat": -23.5547206, "lon": -46.6573022}, {"type": "node", "id": 4203587704, "lat": -23.5547302, "lon": -46.6573128}, {"type": "node", "id": 4203587712, "lat": -23.5547398, "lon": -46.6573234}, {"type": "node", "id": 4203587730, "lat": -23.5547567, "lon": -46.657342}, {"type": "node", "id": 4203587733, "lat": -23.5547591, "lon": -46.6573447}, {"type": "node", "id": 4203587740, "lat": -23.5547689, "lon": -46.6572914}, {"type": "node", "id": 4203587744, "lat": -23.554774, "lon": -46.6573612}, {"type": "node", "id": 4203587746, "lat": -23.5547762, "lon": -46.6573636}, {"type": "node", "id": 4203587756, "lat": -23.5547861, "lon": -46.6573097}, {"type": "node", "id": 4203587760, "lat": -23.5547894, "lon": -46.6573491}, {"type": "node", "id": 4203587781, "lat": -23.5548108, "lon": -46.6572026}, {"type": "node", "id": 4203588011, "lat": -23.5548365, "lon": -46.6571742}, {"type": "node", "id": 4203588015, "lat": -23.5548396, "lon": -46.6572938}, {"type": "node", "id": 4203588021, "lat": -23.5548449, "lon": -46.6571649}, {"type": "node", "id": 4203588069, "lat": -23.5548916, "lon": -46.6571133}, {"type": "node", "id": 4203588191, "lat": -23.5549224, "lon": -46.6572027}, {"type": "node", "id": 4203588213, "lat": -23.5549534, "lon": -46.6571684}, {"type": "node", "id": 4203588251, "lat": -23.5549977, "lon": -46.6569961}, {"type": "node", "id": 4203588274, "lat": -23.5550376, "lon": -46.6570758}, {"type": "node", "id": 4203588284, "lat": -23.5550552, "lon": -46.6570564}, {"type": "node", "id": 4211299898, "lat": -23.5302856, "lon": -46.6424147}, {"type": "node", "id": 4211299899, "lat": -23.5303954, "lon": -46.6423338}, {"type": "node", "id": 4211299900, "lat": -23.5304287, "lon": -46.642642}, {"type": "node", "id": 4211299904, "lat": -23.5304963, "lon": -46.6425915}, {"type": "node", "id": 4211299907, "lat": -23.5305259, "lon": -46.6426381}, {"type": "node", "id": 4211299908, "lat": -23.5305378, "lon": -46.6425605}, {"type": "node", "id": 4211299909, "lat": -23.5305676, "lon": -46.6426069}, {"type": "node", "id": 4213246145, "lat": -23.5374202, "lon": -46.6503485}, {"type": "node", "id": 4274022195, "lat": -23.5589384, "lon": -46.6788991, "tags": {"addr:city": "S\u00e3o Paulo", "addr:housenumber": "763", "addr:postcode": "05412-001", "addr:street": "Rua Jo\u00e3o Moura", "amenity": "post_office", "brand": "Empresa Brasileira de Correios e Tel\u00e9grafos", "brand:short": "Correios", "brand:wikidata": "Q3375004", "name": "Correios"}}, {"type": "node", "id": 4293570292, "lat": -23.5440004, "lon": -46.636494, "tags": {"addr:street": "Avenida S\u00e3o Jo\u00e3o", "amenity": "post_office", "name": "Pal\u00e1cio dos Correios", "wikidata": "Q10344070", "wikimedia_commons": "Category:Pal\u00e1cio dos Correios", "wikipedia": "pt:Pal\u00e1cio dos Correios (S\u00e3o Paulo)"}}, {"type": "node", "id": 4369176269, "lat": -23.61483, "lon": -46.6379071}, {"type": "node", "id": 4369180374, "lat": -23.6146224, "lon": -46.6377291}, {"type": "node", "id": 4369180474, "lat": -23.6146755, "lon": -46.6378781}, {"type": "node", "id": 4369180815, "lat": -23.6146688, "lon": -46.6381812}, {"type": "node", "id": 4369180829, "lat": -23.6146705, "lon": -46.6381571}, {"type": "node", "id": 4369180867, "lat": -23.6147137, "lon": -46.6376297}, {"type": "node", "id": 4369180956, "lat": -23.6146842, "lon": -46.6379025}, {"type": "node", "id": 4369180985, "lat": -23.6146859, "lon": -46.6379482}, {"type": "node", "id": 4369180989, "lat": -23.6146864, "lon": -46.6379411}, {"type": "node", "id": 4369182178, "lat": -23.6148125, "lon": -46.6378654}, {"type": "node", "id": 4369182443, "lat": -23.6147966, "lon": -46.6382347}, {"type": "node", "id": 4369182497, "lat": -23.6148028, "lon": -46.638174}, {"type": "node", "id": 4369182590, "lat": -23.6148137, "lon": -46.6378681}, {"type": "node", "id": 4369182703, "lat": -23.614824, "lon": -46.6379659}, {"type": "node", "id": 4369238910, "lat": -23.6187612, "lon": -46.639768}, {"type": "node", "id": 4369238988, "lat": -23.6187684, "lon": -46.6397697}, {"type": "node", "id": 4369239419, "lat": -23.6187966, "lon": -46.6395978}, {"type": "node", "id": 4369239583, "lat": -23.618832, "lon": -46.6396058}, {"type": "node", "id": 4369240088, "lat": -23.6188674, "lon": -46.6396138}, {"type": "node", "id": 4369240159, "lat": -23.61891, "lon": -46.6398024}, {"type": "node", "id": 4369240435, "lat": -23.6188996, "lon": -46.6398001}, {"type": "node", "id": 4369240465, "lat": -23.6189027, "lon": -46.6396218}, {"type": "node", "id": 4369240637, "lat": -23.6189735, "lon": -46.6396377}, {"type": "node", "id": 4369240924, "lat": -23.6189381, "lon": -46.6396298}, {"type": "node", "id": 4369240937, "lat": -23.6189406, "lon": -46.6398095}, {"type": "node", "id": 4369241252, "lat": -23.6190121, "lon": -46.6398261}, {"type": "node", "id": 4369241610, "lat": -23.6190088, "lon": -46.6396457}, {"type": "node", "id": 4369241903, "lat": -23.6190442, "lon": -46.6396537}, {"type": "node", "id": 4375634888, "lat": -23.4919178, "lon": -46.6766992, "tags": {"addr:city": "S\u00e3o Paulo", "addr:housenumber": "1730 A", "addr:postcode": "02720-100", "addr:street": "Avenida Deputado Em\u00edlio Carlos"}}, {"type": "node", "id": 4375634989, "lat": -23.4919597, "lon": -46.67675}, {"type": "node", "id": 4380779711, "lat": -23.5708932, "lon": -46.6311176, "tags": {"addr:city": "S\u00e3o Paulo", "addr:housenumber": "83", "addr:street": "Avenida Turmalina", "alt_name": "Correios AGF Aclima\u00e7\u00e3o", "amenity": "post_office", "brand": "Correios", "brand:wikidata": "Q3375004", "brand:wikipedia": "en:Correios", "name": "Correios", "opening_hours": "Mo-Fr 09:00-17:00", "operator": "Correios", "phone": "+55 11 3297-5516", "website": "https://m.correios.com.br/movel/buscaAgencia.do?metodo=buscarAgencia&idAgencia=++++00424461"}}, {"type": "node", "id": 4436453279, "lat": -23.5146087, "lon": -46.6514661, "tags": {"addr:city": "S\u00e3o Paulo", "addr:housenumber": "164", "addr:postcode": "02510-020", "addr:street": "Rua Professor Luciano Prata", "building": "warehouse"}}, {"type": "node", "id": 4436453280, "lat": -23.5146114, "lon": -46.6515801, "tags": {"addr:city": "S\u00e3o Paulo", "addr:housenumber": "160", "addr:postcode": "02510-020", "addr:street": "Rua Professor Luciano Prata", "building": "warehouse"}}, {"type": "node", "id": 4441304741, "lat": -23.5027511, "lon": -46.6151736, "tags": {"addr:city": "S\u00e3o Paulo", "addr:housenumber": "1690", "addr:street": "Avenida Zaki Narchi", "building": "warehouse"}}, {"type": "node", "id": 4444183209, "lat": -23.5136449, "lon": -46.6522941, "tags": {"addr:city": "S\u00e3o Paulo", "addr:housenumber": "135", "addr:postcode": "02510-040", "addr:street": "Rua Doutor Mello Nogueira", "building": "warehouse"}}, {"type": "node", "id": 4452623702, "lat": -23.6573725, "lon": -46.7166169}, {"type": "node", "id": 4452623703, "lat": -23.6572501, "lon": -46.7164512}, {"type": "node", "id": 4452623704, "lat": -23.657068, "lon": -46.7166235}, {"type": "node", "id": 4452623705, "lat": -23.6572066, "lon": -46.7168356}, {"type": "node", "id": 4452623706, "lat": -23.6572369, "lon": -46.7168257}, {"type": "node", "id": 4453259959, "lat": -23.5121833, "lon": -46.6020616, "tags": {"addr:city": "S\u00e3o Paulo", "addr:housenumber": "1210", "addr:postcode": "02053-003", "addr:street": "Avenida Guilherme", "building": "warehouse"}}, {"type": "node", "id": 4485776302, "lat": -23.5124284, "lon": -46.6022136, "tags": {"addr:city": "S\u00e3o Paulo", "addr:housenumber": "1160", "addr:postcode": "02053-003", "addr:street": "Avenida Guilherme", "building": "warehouse"}}, {"type": "node", "id": 4487554906, "lat": -23.5531833, "lon": -46.6981698, "tags": {"amenity": "post_office", "operator": "Correios"}}, {"type": "node", "id": 4501397778, "lat": -23.533258, "lon": -46.6260002}, {"type": "node", "id": 4501397779, "lat": -23.5332011, "lon": -46.6262559}, {"type": "node", "id": 4501397780, "lat": -23.5334281, "lon": -46.6263277}, {"type": "node", "id": 4501397781, "lat": -23.5335296, "lon": -46.6259651}, {"type": "node", "id": 4501397782, "lat": -23.5335661, "lon": -46.6259758}, {"type": "node", "id": 4501397783, "lat": -23.5335991, "lon": -46.625848}, {"type": "node", "id": 4501397784, "lat": -23.5333643, "lon": -46.6257791}, {"type": "node", "id": 4501397785, "lat": -23.5332835, "lon": -46.6258749}, {"type": "node", "id": 4501443807, "lat": -23.5352288, "lon": -46.630749}, {"type": "node", "id": 4501443808, "lat": -23.5352536, "lon": -46.6307509}, {"type": "node", "id": 4501443985, "lat": -23.5354263, "lon": -46.6307952}, {"type": "node", "id": 4501443986, "lat": -23.5352517, "lon": -46.6307768}, {"type": "node", "id": 4501443987, "lat": -23.5352273, "lon": -46.6307743}, {"type": "node", "id": 4501443988, "lat": -23.5352104, "lon": -46.6307725}, {"type": "node", "id": 4501443989, "lat": -23.5352086, "lon": -46.6307995}, {"type": "node", "id": 4501443990, "lat": -23.5352085, "lon": -46.630801}, {"type": "node", "id": 4501443991, "lat": -23.5354164, "lon": -46.6308953}, {"type": "node", "id": 4501443992, "lat": -23.5352039, "lon": -46.6308716}, {"type": "node", "id": 4501443993, "lat": -23.5352159, "lon": -46.6309514}, {"type": "node", "id": 4501443994, "lat": -23.5352382, "lon": -46.6309548}, {"type": "node", "id": 4501443995, "lat": -23.5354033, "lon": -46.6310284}, {"type": "node", "id": 4501443996, "lat": -23.5354062, "lon": -46.630999}, {"type": "node", "id": 4501443997, "lat": -23.5352375, "lon": -46.6309796}, {"type": "node", "id": 4501443998, "lat": -23.5352136, "lon": -46.6309769}, {"type": "node", "id": 4501443999, "lat": -23.5351973, "lon": -46.630975}, {"type": "node", "id": 4501444000, "lat": -23.5351971, "lon": -46.6309768}, {"type": "node", "id": 4501444001, "lat": -23.5353974, "lon": -46.631097}, {"type": "node", "id": 4501444002, "lat": -23.5352814, "lon": -46.6310844}, {"type": "node", "id": 4501444005, "lat": -23.5352215, "lon": -46.631078}, {"type": "node", "id": 4501444006, "lat": -23.5351909, "lon": -46.6310746}, {"type": "node", "id": 4501445490, "lat": -23.5354634, "lon": -46.6304157}, {"type": "node", "id": 4501445491, "lat": -23.5353703, "lon": -46.6304054}, {"type": "node", "id": 4501445492, "lat": -23.5353686, "lon": -46.6304261}, {"type": "node", "id": 4501445493, "lat": -23.5352349, "lon": -46.6304129}, {"type": "node", "id": 4501445494, "lat": -23.5352323, "lon": -46.6304526}, {"type": "node", "id": 4501445495, "lat": -23.5354556, "lon": -46.6304952}, {"type": "node", "id": 4501445496, "lat": -23.5352311, "lon": -46.6304697}, {"type": "node", "id": 4501445497, "lat": -23.5352284, "lon": -46.6305094}, {"type": "node", "id": 4501445498, "lat": -23.5352259, "lon": -46.6305464}, {"type": "node", "id": 4501445499, "lat": -23.5352661, "lon": -46.6305497}, {"type": "node", "id": 4501445500, "lat": -23.5354459, "lon": -46.6305956}, {"type": "node", "id": 4501445501, "lat": -23.5352641, "lon": -46.6305754}, {"type": "node", "id": 4501445502, "lat": -23.5352624, "lon": -46.6305989}, {"type": "node", "id": 4501445503, "lat": -23.5352226, "lon": -46.6305953}, {"type": "node", "id": 4501445504, "lat": -23.5352205, "lon": -46.6306271}, {"type": "node", "id": 4501445505, "lat": -23.5352174, "lon": -46.6306716}, {"type": "node", "id": 4501445506, "lat": -23.5354361, "lon": -46.6306961}, {"type": "node", "id": 4552147222, "lat": -23.5165291, "lon": -46.5852859}, {"type": "node", "id": 4552147223, "lat": -23.5167961, "lon": -46.5848854}, {"type": "node", "id": 4552147224, "lat": -23.5173756, "lon": -46.5853396}, {"type": "node", "id": 4552147225, "lat": -23.5171086, "lon": -46.5857401}, {"type": "node", "id": 4561905588, "lat": -23.5574699, "lon": -46.6409576, "tags": {"addr:city": "S\u00e3o Paulo", "addr:housenumber": "878", "addr:postcode": "01318-001", "addr:street": "Avenida Brigadeiro Lu\u00eds Ant\u00f4nio", "building": "warehouse"}}, {"type": "node", "id": 4561913695, "lat": -23.5578314, "lon": -46.6412755, "tags": {"addr:city": "S\u00e3o Paulo", "addr:housenumber": "928", "addr:postcode": "01318-001", "addr:street": "Avenida Brigadeiro Lu\u00eds Ant\u00f4nio", "building": "warehouse"}}, {"type": "node", "id": 4561913701, "lat": -23.5581064, "lon": -46.6415124, "tags": {"addr:city": "S\u00e3o Paulo", "addr:housenumber": "966", "addr:postcode": "01318-001", "addr:street": "Avenida Brigadeiro Lu\u00eds Ant\u00f4nio", "building": "warehouse"}}, {"type": "node", "id": 4584293747, "lat": -23.6315513, "lon": -46.705319, "tags": {"addr:city": "S\u00e3o Paulo", "addr:country": "BR", "addr:housenumber": "1489", "addr:street": "Rua Alexandre Dumas", "amenity": "post_office", "brand": "Empresa Brasileira de Correios e Tel\u00e9grafos", "brand:short": "Correios", "brand:wikidata": "Q3375004", "brand:wikipedia": "en:Correios", "check_date": "2023-09-01", "name": "Correios - AC Alexandre Dumas", "opening_hours": "Mo-Fr 09:00-17:00"}}, {"type": "node", "id": 4592640310, "lat": -23.536061, "lon": -46.6216933, "tags": {"addr:city": "S\u00e3o Paulo", "addr:housenumber": "68", "addr:postcode": "03009-030", "addr:street": "Rua Elisa Whitacker", "building": "warehouse"}}, {"type": "node", "id": 4592640314, "lat": -23.5360614, "lon": -46.6217122, "tags": {"addr:city": "S\u00e3o Paulo", "addr:housenumber": "66", "addr:postcode": "03009-030", "addr:street": "Rua Elisa Whitacker", "building": "warehouse"}}, {"type": "node", "id": 4592640325, "lat": -23.5360372, "lon": -46.6206435, "tags": {"addr:city": "S\u00e3o Paulo", "addr:housenumber": "170", "addr:postcode": "03009-030", "addr:street": "Rua Elisa Whitacker", "building": "warehouse"}}, {"type": "node", "id": 4593793057, "lat": -23.5244564, "lon": -46.6143367}, {"type": "node", "id": 4593793058, "lat": -23.5245047, "lon": -46.6143595}, {"type": "node", "id": 4593793059, "lat": -23.524513, "lon": -46.6143378}, {"type": "node", "id": 4593793060, "lat": -23.5245669, "lon": -46.614364}, {"type": "node", "id": 4593793061, "lat": -23.5245736, "lon": -46.6143473}, {"type": "node", "id": 4593793062, "lat": -23.5246561, "lon": -46.6143862}, {"type": "node", "id": 4593793063, "lat": -23.5246503, "lon": -46.6143988}, {"type": "node", "id": 4593793064, "lat": -23.5246422, "lon": -46.6143931}, {"type": "node", "id": 4593793065, "lat": -23.5246397, "lon": -46.6143981}, {"type": "node", "id": 4593793066, "lat": -23.5246336, "lon": -46.6143935}, {"type": "node", "id": 4593793067, "lat": -23.5246222, "lon": -46.6144149}, {"type": "node", "id": 4593793068, "lat": -23.5244867, "lon": -46.6142608}, {"type": "node", "id": 4593793075, "lat": -23.5246827, "lon": -46.6142694}, {"type": "node", "id": 4593793080, "lat": -23.5247247, "lon": -46.6142893}, {"type": "node", "id": 4593793196, "lat": -23.5247184, "lon": -46.6143052}, {"type": "node", "id": 4593793197, "lat": -23.5246967, "lon": -46.6143598}, {"type": "node", "id": 4593793198, "lat": -23.5246665, "lon": -46.6144357}, {"type": "node", "id": 4593796752, "lat": -23.5248922, "lon": -46.6148164}, {"type": "node", "id": 4593806362, "lat": -23.5247373, "lon": -46.6150859}, {"type": "node", "id": 4593807061, "lat": -23.5267175, "lon": -46.6100559}, {"type": "node", "id": 4593807062, "lat": -23.5266526, "lon": -46.6101255}, {"type": "node", "id": 4593807069, "lat": -23.5267771, "lon": -46.6101209}, {"type": "node", "id": 4593812406, "lat": -23.526907, "lon": -46.6102625}, {"type": "node", "id": 4593812407, "lat": -23.52684, "lon": -46.6103334}, {"type": "node", "id": 4593823997, "lat": -23.5244608, "lon": -46.6149538}, {"type": "node", "id": 4593823999, "lat": -23.5244681, "lon": -46.6149354}, {"type": "node", "id": 4593824000, "lat": -23.5245536, "lon": -46.61472}, {"type": "node", "id": 4593824001, "lat": -23.524575, "lon": -46.6146663}, {"type": "node", "id": 4594470068, "lat": -23.5358727, "lon": -46.6197554, "tags": {"addr:city": "S\u00e3o Paulo", "addr:housenumber": "267", "addr:postcode": "03009-030", "addr:street": "Rua Elisa Whitacker", "building": "warehouse"}}, {"type": "node", "id": 4594470071, "lat": -23.5358731, "lon": -46.6197713, "tags": {"addr:city": "S\u00e3o Paulo", "addr:housenumber": "265", "addr:postcode": "03009-030", "addr:street": "Rua Elisa Whitacker", "building": "warehouse"}}, {"type": "node", "id": 4594470073, "lat": -23.5358717, "lon": -46.6197119, "tags": {"addr:city": "S\u00e3o Paulo", "addr:housenumber": "275", "addr:postcode": "03009-030", "addr:street": "Rua Elisa Whitacker", "building": "warehouse"}}, {"type": "node", "id": 4594470096, "lat": -23.5353829, "lon": -46.619791, "tags": {"addr:city": "S\u00e3o Paulo", "addr:housenumber": "1326", "addr:postcode": "03009-000", "addr:street": "Rua Jo\u00e3o Teodoro", "building": "warehouse"}}, {"type": "node", "id": 4594888737, "lat": -23.5310696, "lon": -46.6006097}, {"type": "node", "id": 4594888738, "lat": -23.5310816, "lon": -46.6006911}, {"type": "node", "id": 4594888739, "lat": -23.5310481, "lon": -46.6006973}, {"type": "node", "id": 4594888740, "lat": -23.5310656, "lon": -46.6008113}, {"type": "node", "id": 4594888741, "lat": -23.5311045, "lon": -46.6008062}, {"type": "node", "id": 4594888742, "lat": -23.5311456, "lon": -46.6011088}, {"type": "node", "id": 4594888743, "lat": -23.5312525, "lon": -46.6010906}, {"type": "node", "id": 4608116701, "lat": -23.5304822, "lon": -46.623221, "tags": {"addr:city": "S\u00e3o Paulo", "addr:housenumber": "459", "addr:postcode": "03033-000", "addr:street": "Rua Canind\u00e9", "building": "warehouse"}}, {"type": "node", "id": 4608116711, "lat": -23.5308739, "lon": -46.6233382, "tags": {"addr:city": "S\u00e3o Paulo", "addr:housenumber": "415", "addr:postcode": "03033-000", "addr:street": "Rua Canind\u00e9", "building": "warehouse"}}, {"type": "node", "id": 4608649172, "lat": -23.5308012, "lon": -46.6240326, "tags": {"addr:city": "S\u00e3o Paulo", "addr:housenumber": "169", "addr:postcode": "03033-030", "addr:street": "Rua Afonso Arinos", "building": "warehouse"}}, {"type": "node", "id": 4608649181, "lat": -23.5309083, "lon": -46.6236023, "tags": {"addr:city": "S\u00e3o Paulo", "addr:housenumber": "219", "addr:postcode": "03033-030", "addr:street": "Rua Afonso Arinos", "building": "warehouse"}}, {"type": "node", "id": 4608649182, "lat": -23.5309167, "lon": -46.6235686, "tags": {"addr:city": "S\u00e3o Paulo", "addr:housenumber": "227", "addr:postcode": "03033-030", "addr:street": "Rua Afonso Arinos", "building": "warehouse"}}, {"type": "node", "id": 4608649185, "lat": -23.5290804, "lon": -46.6231668, "tags": {"addr:city": "S\u00e3o Paulo", "addr:housenumber": "262", "addr:postcode": "03033-050", "addr:street": "Rua Vidal de Negreiros", "building": "warehouse"}}, {"type": "node", "id": 4608649188, "lat": -23.5291236, "lon": -46.6232603, "tags": {"addr:city": "S\u00e3o Paulo", "addr:housenumber": "250", "addr:postcode": "03033-050", "addr:street": "Rua Vidal de Negreiros", "building": "warehouse"}}, {"type": "node", "id": 4608655189, "lat": -23.5291475, "lon": -46.6233121, "tags": {"addr:city": "S\u00e3o Paulo", "addr:housenumber": "246", "addr:postcode": "03033-050", "addr:street": "Rua Vidal de Negreiros", "building": "warehouse"}}, {"type": "node", "id": 4611695118, "lat": -23.5305961, "lon": -46.6241148, "tags": {"addr:city": "S\u00e3o Paulo", "addr:housenumber": "28", "addr:postcode": "03033-040", "addr:street": "Rua Madeira", "building": "warehouse"}}, {"type": "node", "id": 4611695119, "lat": -23.5305255, "lon": -46.6240936, "tags": {"addr:city": "S\u00e3o Paulo", "addr:housenumber": "42", "addr:postcode": "03033-040", "addr:street": "Rua Madeira", "building": "warehouse"}}, {"type": "node", "id": 4611695125, "lat": -23.5302392, "lon": -46.6240077, "tags": {"addr:city": "S\u00e3o Paulo", "addr:housenumber": "72", "addr:postcode": "03033-040", "addr:street": "Rua Madeira", "building": "warehouse"}}, {"type": "node", "id": 4611695127, "lat": -23.5301462, "lon": -46.6239799, "tags": {"addr:city": "S\u00e3o Paulo", "addr:housenumber": "82", "addr:postcode": "03033-040", "addr:street": "Rua Madeira", "building": "warehouse"}}, {"type": "node", "id": 4611695133, "lat": -23.5299601, "lon": -46.6239242, "tags": {"addr:city": "S\u00e3o Paulo", "addr:housenumber": "104", "addr:postcode": "03033-040", "addr:street": "Rua Madeira", "building": "warehouse"}}, {"type": "node", "id": 4622820113, "lat": -23.5831908, "lon": -46.5993064}, {"type": "node", "id": 4623626423, "lat": -23.5308138, "lon": -46.6012271, "tags": {"addr:city": "S\u00e3o Paulo", "addr:housenumber": "106", "addr:postcode": "03021-040", "addr:street": "Rua Jequitinhonha"}}, {"type": "node", "id": 4623626424, "lat": -23.5307958, "lon": -46.6011139, "tags": {"addr:city": "S\u00e3o Paulo", "addr:housenumber": "112", "addr:postcode": "03021-040", "addr:street": "Rua Jequitinhonha"}}, {"type": "node", "id": 4623626425, "lat": -23.5307806, "lon": -46.6010189, "tags": {"addr:city": "S\u00e3o Paulo", "addr:housenumber": "124", "addr:postcode": "03021-040", "addr:street": "Rua Jequitinhonha"}}, {"type": "node", "id": 4623626426, "lat": -23.5308481, "lon": -46.6014415}, {"type": "node", "id": 4623626427, "lat": -23.5307413, "lon": -46.6007729}, {"type": "node", "id": 4623626428, "lat": -23.5309504, "lon": -46.6007285}, {"type": "node", "id": 4623626429, "lat": -23.5309471, "lon": -46.6006769}, {"type": "node", "id": 4623626430, "lat": -23.5309878, "lon": -46.6006649}, {"type": "node", "id": 4623626431, "lat": -23.5309812, "lon": -46.6005941}, {"type": "node", "id": 4623626435, "lat": -23.5312818, "lon": -46.6012946}, {"type": "node", "id": 4623626436, "lat": -23.5310033, "lon": -46.6013469}, {"type": "node", "id": 4623626437, "lat": -23.5310121, "lon": -46.6014175}, {"type": "node", "id": 4770040149, "lat": -23.5333436, "lon": -46.6258914}, {"type": "node", "id": 4781920943, "lat": -23.5449193, "lon": -46.6437908, "tags": {"addr:city": "S\u00e3o Paulo", "addr:country": "BR", "addr:housenumber": "71", "addr:postcode": "01045-001", "addr:street": "Pra\u00e7a da Rep\u00fablica", "amenity": "post_office", "brand": "DHL", "brand:wikidata": "Q489815", "brand:wikipedia": "en:DHL", "contact:website": "http://www.dhl.com.br/", "name": "DHL", "opening_hours": "Mo-Fr 13:00-18:00, 09:00-12:00"}}, {"type": "node", "id": 4790613130, "lat": -23.5430149, "lon": -46.6138138, "tags": {"addr:city": "S\u00e3o Paulo", "addr:housenumber": "163", "addr:postcode": "03050-000", "addr:street": "Rua Gomes Cardim", "amenity": "post_office", "brand": "Correios", "brand:wikidata": "Q3375004", "brand:wikipedia": "en:Correios", "name": "Correios"}}, {"type": "node", "id": 4799881932, "lat": -23.4392425, "lon": -46.740026}, {"type": "node", "id": 4805891282, "lat": -23.5469043, "lon": -46.6333068, "tags": {"addr:city": "S\u00e3o Paulo", "addr:housenumber": "88", "addr:postcode": "01014-000", "addr:street": "Rua Boa Vista", "amenity": "post_office", "brand": "Correios", "brand:wikidata": "Q3375004", "brand:wikipedia": "en:Correios", "name": "Correios", "operator": "Correios", "operator:wikidata": "Q3375004", "operator:wikipedia": "en:Correios"}}, {"type": "node", "id": 4823574646, "lat": -23.5547782, "lon": -46.7410969}, {"type": "node", "id": 4823782681, "lat": -23.5671563, "lon": -46.6681439, "tags": {"addr:city": "S\u00e3o Paulo", "addr:country": "BR", "addr:housenumber": "1434", "addr:postcode": "01427-970", "addr:street": "Rua Estados Unidos", "addr:suburb": "Jardim Am\u00e9rica", "alt_name": "Correios", "amenity": "post_office", "brand": "Empresa Brasileira de Correios e Tel\u00e9grafos", "brand:short": "Correios", "brand:wikidata": "Q3375004", "contact:phone": "+55 11 3083-1575", "contact:website": "http://www.correios.com.br/", "name": "AGF Jardim Am\u00e9rica", "opening_hours": "Mo-Fr 09:00-17:00", "operator": "Empresa Brasileira de Correios e Tel\u00e9grafos"}}, {"type": "node", "id": 4823782707, "lat": -23.5542695, "lon": -46.7446979}, {"type": "node", "id": 4823782708, "lat": -23.5544964, "lon": -46.7449357}, {"type": "node", "id": 4823782709, "lat": -23.5548487, "lon": -46.744509}, {"type": "node", "id": 4823782710, "lat": -23.5546188, "lon": -46.7442941}, {"type": "node", "id": 4823782720, "lat": -23.5535917, "lon": -46.7415481}, {"type": "node", "id": 4823787121, "lat": -23.5539942, "lon": -46.7419926}, {"type": "node", "id": 4823787122, "lat": -23.5551013, "lon": -46.7407278}, {"type": "node", "id": 4823787123, "lat": -23.5546686, "lon": -46.7402875}, {"type": "node", "id": 4823787124, "lat": -23.5547768, "lon": -46.740207}, {"type": "node", "id": 4823787125, "lat": -23.5551665, "lon": -46.7406533}, {"type": "node", "id": 4823787126, "lat": -23.5557259, "lon": -46.7400142}, {"type": "node", "id": 4823787127, "lat": -23.5553325, "lon": -46.7395686}, {"type": "node", "id": 4823787128, "lat": -23.553336, "lon": -46.7414676}, {"type": "node", "id": 4823787129, "lat": -23.5529736, "lon": -46.741072}, {"type": "node", "id": 4823787130, "lat": -23.5548456, "lon": -46.7389946}, {"type": "node", "id": 4823787131, "lat": -23.5552095, "lon": -46.7393862}, {"type": "node", "id": 4881860691, "lat": -23.5569849, "lon": -46.6623542, "tags": {"addr:city": "S\u00e3o Paulo", "addr:housenumber": "1165", "addr:postcode": "01415-003", "addr:street": "Rua Bela Cintra", "amenity": "post_office", "brand": "DHL", "brand:wikidata": "Q489815", "brand:wikipedia": "en:DHL", "name": "DHL"}}, {"type": "node", "id": 4897189823, "lat": -23.6254601, "lon": -46.661032, "tags": {"amenity": "post_office", "brand": "Empresa Brasileira de Correios e Tel\u00e9grafos", "brand:short": "Correios", "brand:wikidata": "Q3375004", "brand:wikipedia": "en:Correios", "name": "Correios", "operator": "Correios"}}, {"type": "node", "id": 4929586374, "lat": -23.5678096, "lon": -46.6921837, "tags": {"addr:city": "S\u00e3o Paulo", "addr:housenumber": "1502", "addr:postcode": "05422-002", "addr:street": "Rua dos Pinheiros", "amenity": "post_office", "name": "Correios"}}, {"type": "node", "id": 4992752363, "lat": -23.555027, "lon": -46.6570269, "tags": {"addr:city": "S\u00e3o Paulo", "addr:housenumber": "1260", "addr:postcode": "01304-001", "addr:street": "Rua Augusta"}}, {"type": "node", "id": 4992804790, "lat": -23.5537065, "lon": -46.6594258}, {"type": "node", "id": 5069123628, "lat": -23.5859563, "lon": -46.5564556}, {"type": "node", "id": 5069123629, "lat": -23.5864074, "lon": -46.5541664}, {"type": "node", "id": 5069123630, "lat": -23.5858922, "lon": -46.5540504}, {"type": "node", "id": 5069123631, "lat": -23.585462, "lon": -46.556337}, {"type": "node", "id": 5076311736, "lat": -23.5304642, "lon": -46.7443907, "tags": {"addr:housename": "BurtiHD", "addr:housenumber": "974", "addr:postcode": "05311-000", "addr:street": "Avenida Mofarrej", "building": "warehouse", "name": "Editora Gr\u00e1ficos Burti Ltda\u200e"}}, {"type": "node", "id": 5076967582, "lat": -23.5268047, "lon": -46.7365928}, {"type": "node", "id": 5076967583, "lat": -23.5272912, "lon": -46.7361289}, {"type": "node", "id": 5076967584, "lat": -23.5290852, "lon": -46.7384348}, {"type": "node", "id": 5076967585, "lat": -23.5285896, "lon": -46.7388839}, {"type": "node", "id": 5080424936, "lat": -23.6067691, "lon": -46.664365}, {"type": "node", "id": 5080424968, "lat": -23.6061131, "lon": -46.6637487}, {"type": "node", "id": 5080581397, "lat": -23.5749847, "lon": -46.6562094}, {"type": "node", "id": 5080581398, "lat": -23.575022, "lon": -46.65617}, {"type": "node", "id": 5080581425, "lat": -23.5750415, "lon": -46.6561911}, {"type": "node", "id": 5080581426, "lat": -23.5749698, "lon": -46.6562252}, {"type": "node", "id": 5080581427, "lat": -23.5749879, "lon": -46.6562443}, {"type": "node", "id": 5080581428, "lat": -23.5748474, "lon": -46.6563962}, {"type": "node", "id": 5080581429, "lat": -23.5749047, "lon": -46.6564585}, {"type": "node", "id": 5080581430, "lat": -23.5750662, "lon": -46.656284}, {"type": "node", "id": 5093676332, "lat": -23.5442325, "lon": -46.6307124, "tags": {"addr:city": "S\u00e3o Paulo", "addr:housenumber": "191", "addr:postcode": "01022-020", "addr:street": "Rua Cavalheiro Bas\u00edlio Jafet", "amenity": "post_office", "brand": "Empresa Brasileira de Correios e Tel\u00e9grafos", "brand:short": "Correios", "brand:wikidata": "Q3375004", "name": "Correios", "operator": "Correios", "operator:wikidata": "Q3375004", "operator:wikipedia": "en:Correios"}}, {"type": "node", "id": 5108562859, "lat": -23.6519369, "lon": -46.6591651, "tags": {"amenity": "post_office", "brand": "Correios", "brand:wikidata": "Q3375004", "brand:wikipedia": "en:Correios", "name": "Correios"}}, {"type": "node", "id": 5125898086, "lat": -23.6611233, "lon": -46.663921, "tags": {"amenity": "post_office", "brand": "Correios", "brand:wikidata": "Q3375004", "brand:wikipedia": "en:Correios", "name": "Correios", "website": "https://www.correios.com.br/"}}, {"type": "node", "id": 5125926448, "lat": -23.6437746, "lon": -46.6739672, "tags": {"amenity": "post_office", "brand": "Correios", "brand:wikidata": "Q3375004", "name": "Ag\u00eancia dos Correios - AGF Chacara Monte Alegre"}}, {"type": "node", "id": 5136378323, "lat": -23.4869628, "lon": -46.7161928, "tags": {"addr:street": "Avenida Benedito de Andrade", "amenity": "post_office", "name": "Correios Ag. Pirituba", "opening_hours": "Mo-Fr 09:00-17:00"}}, {"type": "node", "id": 5247898382, "lat": -23.5376136, "lon": -46.6443637, "tags": {"addr:city": "S\u00e3o Paulo", "addr:country": "BR", "addr:housenumber": "525", "addr:postcode": "01214-100", "addr:street": "Avenida Duque de Caxias", "addr:suburb": "Campos El\u00edseos", "amenity": "post_office", "contact:phone": "+55 11 32248909", "name": "Azul Cargo", "opening_hours": "Mo-Fr 08:00-18:00", "operator": "Azul Linhas A\u00e9reas Brasileiras", "operator:short": "Azul", "operator:type": "private", "operator:wikidata": "Q794272"}}, {"type": "node", "id": 5257172020, "lat": -23.5131445, "lon": -46.7078971}, {"type": "node", "id": 5257173121, "lat": -23.5138823, "lon": -46.7082082}, {"type": "node", "id": 5257173122, "lat": -23.514025, "lon": -46.7077039}, {"type": "node", "id": 5257173123, "lat": -23.5132773, "lon": -46.7073821}, {"type": "node", "id": 5272027577, "lat": -23.6736377, "lon": -46.6652112, "tags": {"amenity": "post_office", "brand": "Correios", "brand:wikidata": "Q3375004", "brand:wikipedia": "en:Correios", "name": "Correios", "website": "https://www.correios.com.br/"}}, {"type": "node", "id": 5288520270, "lat": -23.57845, "lon": -46.6232138, "tags": {"amenity": "post_office", "name": "CDD Cambuci"}}, {"type": "node", "id": 5288525930, "lat": -23.5646257, "lon": -46.6208876, "tags": {"amenity": "post_office", "brand": "Correios", "brand:wikidata": "Q3375004", "name": "Correios"}}, {"type": "node", "id": 5298322624, "lat": -23.5718, "lon": -46.7055224, "tags": {"addr:housenumber": "280", "addr:postcode": "05501-040", "addr:street": "Rua Desembargador Armando Fairbanks", "amenity": "post_office", "brand": "Empresa Brasileira de Correios e Tel\u00e9grafos", "brand:short": "Correios", "brand:wikidata": "Q3375004", "brand:wikipedia": "en:Correios", "name": "Correios"}}, {"type": "node", "id": 5322764267, "lat": -23.5845091, "lon": -46.6371493, "tags": {"amenity": "post_office", "brand": "Empresa Brasileira de Correios e Tel\u00e9grafos", "brand:short": "Correios", "brand:wikidata": "Q3375004", "brand:wikipedia": "en:Correios", "name": "Correios"}}, {"type": "node", "id": 5326798006, "lat": -23.6201148, "lon": -46.6397893, "tags": {"addr:city": "S\u00e3o Paulo", "addr:housenumber": "1802", "addr:postcode": "04046-973", "addr:street": "Avenida Jabaquara", "addr:suburb": "Sa\u00fade", "amenity": "post_office", "brand": "Correios", "brand:wikidata": "Q3375004", "brand:wikipedia": "en:Correios", "name": "Correios", "opening_hours": "Mo-Fr 09:00-17:00"}}, {"type": "node", "id": 5329450502, "lat": -23.5242846, "lon": -46.6195932, "tags": {"addr:city": "S\u00e3o Paulo", "addr:housenumber": "161", "addr:postcode": "03034-070", "addr:street": "Rua Comendador Nestor Pereira"}}, {"type": "node", "id": 5375303419, "lat": -23.5244637, "lon": -46.6142095, "tags": {"addr:city": "S\u00e3o Paulo", "addr:housenumber": "104", "addr:postcode": "03035-115", "addr:street": "Rua Monsenhor Abreu"}}, {"type": "node", "id": 5712321634, "lat": -23.6278245, "lon": -46.6429748, "tags": {"amenity": "post_office", "brand": "Correios", "brand:wikidata": "Q3375004", "brand:wikipedia": "en:Correios", "name": "Correios"}}, {"type": "node", "id": 5752739887, "lat": -23.6115938, "lon": -46.617919, "tags": {"amenity": "post_office", "brand": "Correios", "brand:wikidata": "Q3375004", "brand:wikipedia": "en:Correios", "name": "Correios", "website": "https://www.correios.com.br/"}}, {"type": "node", "id": 5824282786, "lat": -23.4574962, "lon": -46.5723109}, {"type": "node", "id": 5824282787, "lat": -23.4575601, "lon": -46.5723297}, {"type": "node", "id": 5824282788, "lat": -23.4575823, "lon": -46.57226}, {"type": "node", "id": 5824282789, "lat": -23.4576413, "lon": -46.5722761}, {"type": "node", "id": 5824282790, "lat": -23.4578111, "lon": -46.5721017}, {"type": "node", "id": 5824282791, "lat": -23.4575626, "lon": -46.5720052}, {"type": "node", "id": 5824282792, "lat": -23.4575946, "lon": -46.5718791}, {"type": "node", "id": 5824282793, "lat": -23.4574888, "lon": -46.5718469}, {"type": "node", "id": 5824282794, "lat": -23.4575306, "lon": -46.5717155}, {"type": "node", "id": 5824282797, "lat": -23.4566497, "lon": -46.5717745}, {"type": "node", "id": 5824282799, "lat": -23.4567113, "lon": -46.5719327}, {"type": "node", "id": 5824282800, "lat": -23.4567457, "lon": -46.5719998}, {"type": "node", "id": 5824282801, "lat": -23.4569155, "lon": -46.5720561}, {"type": "node", "id": 5824282802, "lat": -23.456886, "lon": -46.5721849}, {"type": "node", "id": 5824282803, "lat": -23.4574666, "lon": -46.5723726}, {"type": "node", "id": 5842787296, "lat": -23.5071827, "lon": -46.6266778}, {"type": "node", "id": 5842787297, "lat": -23.5071652, "lon": -46.6263184}, {"type": "node", "id": 5842787298, "lat": -23.5070978, "lon": -46.6263218}, {"type": "node", "id": 5842787299, "lat": -23.5071023, "lon": -46.6264196}, {"type": "node", "id": 5842787300, "lat": -23.5071309, "lon": -46.6264191}, {"type": "node", "id": 5842787301, "lat": -23.507131, "lon": -46.6264451}, {"type": "node", "id": 5842787302, "lat": -23.5071036, "lon": -46.6264459}, {"type": "node", "id": 5842787303, "lat": -23.5071114, "lon": -46.6266129}, {"type": "node", "id": 5842787304, "lat": -23.5071136, "lon": -46.6266607}, {"type": "node", "id": 5842787305, "lat": -23.5071146, "lon": -46.626682}, {"type": "node", "id": 5843062631, "lat": -23.4961727, "lon": -46.6158944}, {"type": "node", "id": 5843062632, "lat": -23.496186, "lon": -46.6159156}, {"type": "node", "id": 5846785317, "lat": -23.4606826, "lon": -46.5704627}, {"type": "node", "id": 5846785318, "lat": -23.461079, "lon": -46.570271}, {"type": "node", "id": 5846785319, "lat": -23.4611627, "lon": -46.5704743}, {"type": "node", "id": 5846785320, "lat": -23.4607662, "lon": -46.570666}, {"type": "node", "id": 5850548143, "lat": -23.7021415, "lon": -46.7008499}, {"type": "node", "id": 5850548144, "lat": -23.7021693, "lon": -46.7010232}, {"type": "node", "id": 5850548145, "lat": -23.7022078, "lon": -46.7010155}, {"type": "node", "id": 5850548146, "lat": -23.7022284, "lon": -46.7011365}, {"type": "node", "id": 5850548147, "lat": -23.7023158, "lon": -46.7011189}, {"type": "node", "id": 5850548742, "lat": -23.7022644, "lon": -46.7008178}, {"type": "node", "id": 5862011723, "lat": -23.6738892, "lon": -46.746181}, {"type": "node", "id": 5862011724, "lat": -23.6739248, "lon": -46.746254}, {"type": "node", "id": 5862011725, "lat": -23.6740569, "lon": -46.7461713}, {"type": "node", "id": 5862011726, "lat": -23.6740178, "lon": -46.7461}, {"type": "node", "id": 5863874181, "lat": -23.6434771, "lon": -46.6997148}, {"type": "node", "id": 5863874183, "lat": -23.6435323, "lon": -46.6997517}, {"type": "node", "id": 5863874184, "lat": -23.6433972, "lon": -46.7000012}, {"type": "node", "id": 5863876785, "lat": -23.6433393, "lon": -46.6999609}, {"type": "node", "id": 5874264629, "lat": -23.4050567, "lon": -46.7444579}, {"type": "node", "id": 5874264630, "lat": -23.405056, "lon": -46.7444355}, {"type": "node", "id": 5874264631, "lat": -23.4051051, "lon": -46.7444331}, {"type": "node", "id": 5874264632, "lat": -23.4051053, "lon": -46.7444428}, {"type": "node", "id": 5874264633, "lat": -23.4051383, "lon": -46.7444421}, {"type": "node", "id": 5874264634, "lat": -23.4051365, "lon": -46.7443827}, {"type": "node", "id": 5874264635, "lat": -23.4050247, "lon": -46.7443846}, {"type": "node", "id": 5874264636, "lat": -23.4050265, "lon": -46.7444582}, {"type": "node", "id": 5874747292, "lat": -23.440374, "lon": -46.73925}, {"type": "node", "id": 5874747293, "lat": -23.4403745, "lon": -46.7391731}, {"type": "node", "id": 5874747294, "lat": -23.4403354, "lon": -46.7391727}, {"type": "node", "id": 5874747295, "lat": -23.4403355, "lon": -46.7391362}, {"type": "node", "id": 5874747296, "lat": -23.4403126, "lon": -46.7388991}, {"type": "node", "id": 5874747297, "lat": -23.4403051, "lon": -46.7389003}, {"type": "node", "id": 5874747298, "lat": -23.4402712, "lon": -46.7387527}, {"type": "node", "id": 5874747299, "lat": -23.4402384, "lon": -46.738755}, {"type": "node", "id": 5874747300, "lat": -23.4402392, "lon": -46.7386618}, {"type": "node", "id": 5874747301, "lat": -23.4401011, "lon": -46.7386608}, {"type": "node", "id": 5874747302, "lat": -23.440102, "lon": -46.7385812}, {"type": "node", "id": 5874747303, "lat": -23.4402191, "lon": -46.7385816}, {"type": "node", "id": 5874747304, "lat": -23.4401626, "lon": -46.7383604}, {"type": "node", "id": 5874747305, "lat": -23.4401038, "lon": -46.7383595}, {"type": "node", "id": 5874747306, "lat": -23.4392803, "lon": -46.7381706}, {"type": "node", "id": 5874747307, "lat": -23.4391105, "lon": -46.7382153}, {"type": "node", "id": 5874747308, "lat": -23.4390924, "lon": -46.738215}, {"type": "node", "id": 5875656982, "lat": -23.4946482, "lon": -46.3790182, "tags": {"amenity": "post_office", "name": "AGF Jardim das Oliveiras"}}, {"type": "node", "id": 5878700233, "lat": -23.541554, "lon": -46.4106334, "tags": {"amenity": "post_office", "brand": "Empresa Brasileira de Correios e Tel\u00e9grafos", "brand:short": "Correios", "brand:wikidata": "Q3375004", "name": "Correios", "operator": "Empresa Brasileira de Correios e Telegrafos"}}, {"type": "node", "id": 5880599670, "lat": -23.5994077, "lon": -46.4013381}, {"type": "node", "id": 5880599671, "lat": -23.5994405, "lon": -46.401261}, {"type": "node", "id": 5880599672, "lat": -23.5994382, "lon": -46.4012592}, {"type": "node", "id": 5880599673, "lat": -23.5993068, "lon": -46.4011954}, {"type": "node", "id": 5880599674, "lat": -23.5993073, "lon": -46.4011942}, {"type": "node", "id": 5880599675, "lat": -23.5993022, "lon": -46.4011917}, {"type": "node", "id": 5880599676, "lat": -23.5992392, "lon": -46.4012497}, {"type": "node", "id": 5880599677, "lat": -23.5992363, "lon": -46.4012565}, {"type": "node", "id": 5880606011, "lat": -23.5992688, "lon": -46.4011774}, {"type": "node", "id": 5880606016, "lat": -23.5992667, "lon": -46.4011825}, {"type": "node", "id": 5880606023, "lat": -23.5992428, "lon": -46.4012407}, {"type": "node", "id": 5880606144, "lat": -23.5993806, "lon": -46.4013252}, {"type": "node", "id": 5880606145, "lat": -23.5992463, "lon": -46.4012612}, {"type": "node", "id": 5883324001, "lat": -23.4952398, "lon": -46.4106569, "tags": {"addr:street": "Avenida Marechal Tito", "addr:suburb": "Vila Curu\u00e7a", "amenity": "post_office", "brand": "Correios", "brand:wikidata": "Q3375004", "brand:wikipedia": "en:Correios", "name": "Correios", "opening_hours": "Mo-Fr 09:00-17:00"}}, {"type": "node", "id": 5890855118, "lat": -23.4995259, "lon": -46.4400178}, {"type": "node", "id": 6250375701, "lat": -23.4860564, "lon": -46.6167079}, {"type": "node", "id": 6251821628, "lat": -23.5696867, "lon": -46.6972951, "tags": {"addr:city": "S\u00e3o Paulo", "addr:housenumber": "235", "addr:postcode": "05424-140", "addr:street": "Rua Butant\u00e3", "amenity": "post_office"}}, {"type": "node", "id": 6439861742, "lat": -23.5734571, "lon": -46.7246564, "tags": {"addr:city": "S\u00e3o Paulo", "addr:country": "BR", "addr:housenumber": "1101", "addr:postcode": "05581-970", "addr:state": "SP", "addr:street": "Avenida Corifeu de Azevedo Marques", "alt_name": "AGF Benjamim Mansur", "amenity": "post_office", "brand": "Empresa Brasileira de Correios e Tel\u00e9grafos", "brand:short": "Correios", "brand:wikidata": "Q3375004", "contact:phone": "+55 11 3726-4645", "name": "Correios", "opening_hours": "Mo-Fr 09:00-17:00", "operator": "Correios"}}, {"type": "node", "id": 6554169558, "lat": -23.4869134, "lon": -46.6922777}, {"type": "node", "id": 6554169559, "lat": -23.4867633, "lon": -46.6922348}, {"type": "node", "id": 6554169560, "lat": -23.4867904, "lon": -46.6920846}, {"type": "node", "id": 6554169561, "lat": -23.4869355, "lon": -46.6921275}, {"type": "node", "id": 6712833932, "lat": -23.5083823, "lon": -46.5963302}, {"type": "node", "id": 6712833933, "lat": -23.5082046, "lon": -46.5962576}, {"type": "node", "id": 6712833934, "lat": -23.5081925, "lon": -46.596294}, {"type": "node", "id": 6712833935, "lat": -23.5082146, "lon": -46.5963025}, {"type": "node", "id": 6712833936, "lat": -23.5082034, "lon": -46.5963367}, {"type": "node", "id": 6712833938, "lat": -23.5082746, "lon": -46.5963658}, {"type": "node", "id": 6712833939, "lat": -23.5083578, "lon": -46.5963998}, {"type": "node", "id": 6717579058, "lat": -23.5184086, "lon": -46.5899384}, {"type": "node", "id": 6717579059, "lat": -23.5182, "lon": -46.5902525}, {"type": "node", "id": 6717579060, "lat": -23.5182718, "lon": -46.5903096}, {"type": "node", "id": 6717579061, "lat": -23.5182543, "lon": -46.5902957}, {"type": "node", "id": 6717597234, "lat": -23.5184817, "lon": -46.5899939}, {"type": "node", "id": 6717597235, "lat": -23.5183239, "lon": -46.5902313}, {"type": "node", "id": 6718797552, "lat": -23.5749972, "lon": -46.5145203}, {"type": "node", "id": 6718823527, "lat": -23.5749452, "lon": -46.5145727}, {"type": "node", "id": 6718823528, "lat": -23.5748818, "lon": -46.5146366}, {"type": "node", "id": 6718823529, "lat": -23.5748323, "lon": -46.5145811}, {"type": "node", "id": 6719982941, "lat": -23.4611487, "lon": -46.5709656}, {"type": "node", "id": 6719982942, "lat": -23.4611641, "lon": -46.5707543}, {"type": "node", "id": 6719982943, "lat": -23.4614711, "lon": -46.5707857}, {"type": "node", "id": 6719982944, "lat": -23.4613886, "lon": -46.5709949}, {"type": "node", "id": 6721366655, "lat": -23.5288808, "lon": -46.5792549}, {"type": "node", "id": 6721366656, "lat": -23.5287613, "lon": -46.5793357}, {"type": "node", "id": 6721366661, "lat": -23.5293785, "lon": -46.5789186}, {"type": "node", "id": 6721366662, "lat": -23.5296197, "lon": -46.5793384}, {"type": "node", "id": 6733213587, "lat": -23.5098784, "lon": -46.549643}, {"type": "node", "id": 6733213599, "lat": -23.5096666, "lon": -46.5499045}, {"type": "node", "id": 6733213605, "lat": -23.5097629, "lon": -46.5497856}, {"type": "node", "id": 6733295218, "lat": -23.5445713, "lon": -46.5734437, "tags": {"addr:city": "S\u00e3o Paulo", "addr:housenumber": "147", "addr:postcode": "03316-010", "addr:street": "Rua Isidoro Tinoco", "amenity": "post_office", "brand": "Correios", "brand:wikidata": "Q3375004", "brand:wikipedia": "en:Correios", "name": "Correios", "operator": "Correios", "operator:wikidata": "Q3375004", "operator:wikipedia": "en:Correios"}}, {"type": "node", "id": 6737073667, "lat": -23.4846351, "lon": -46.4894224}, {"type": "node", "id": 6737073670, "lat": -23.4847016, "lon": -46.4892765}, {"type": "node", "id": 6737073673, "lat": -23.4845517, "lon": -46.4894122}, {"type": "node", "id": 6737073676, "lat": -23.484496, "lon": -46.4893867}, {"type": "node", "id": 6737073677, "lat": -23.4844581, "lon": -46.4893695}, {"type": "node", "id": 6737085490, "lat": -23.4846246, "lon": -46.4894454}, {"type": "node", "id": 6737085491, "lat": -23.4845796, "lon": -46.4894249}, {"type": "node", "id": 6750152224, "lat": -23.4565793, "lon": -46.5716737}, {"type": "node", "id": 6750152225, "lat": -23.4565981, "lon": -46.5717718}, {"type": "node", "id": 6750152226, "lat": -23.4566301, "lon": -46.5718925}, {"type": "node", "id": 6750152227, "lat": -23.4569006, "lon": -46.5716989}, {"type": "node", "id": 7002964860, "lat": -23.6024555, "lon": -46.6902236, "tags": {"amenity": "post_office", "brand": "Empresa Brasileira de Correios e Tel\u00e9grafos", "brand:short": "Correios", "brand:wikidata": "Q3375004", "brand:wikipedia": "en:Correios", "name": "Correios", "opening_hours": "Mo-Fr 09:00-17:00"}}, {"type": "node", "id": 7197867448, "lat": -23.6146038, "lon": -46.6376824}, {"type": "node", "id": 7197867451, "lat": -23.6146671, "lon": -46.6382063}, {"type": "node", "id": 7197867453, "lat": -23.6147325, "lon": -46.6382206, "tags": {"addr:city": "S\u00e3o Paulo", "addr:housenumber": "1195", "addr:postcode": "04045-002", "addr:street": "Avenida Jabaquara", "entrance": "yes"}}, {"type": "node", "id": 7909949649, "lat": -23.4836237, "lon": -46.6437318, "tags": {"addr:city": "S\u00e3o Paulo", "addr:housenumber": "2554", "addr:postcode": "02430-001", "addr:street": "Rua Conselheiro Moreira de Barros", "amenity": "post_office", "brand": "Correios", "brand:wikidata": "Q3375004", "brand:wikipedia": "en:Correios", "name": "Correios"}}, {"type": "node", "id": 8164587954, "lat": -23.4938686, "lon": -46.6471696, "tags": {"addr:city": "S\u00e3o Paulo", "addr:housenumber": "1327", "addr:postcode": "02465-100", "addr:street": "Avenida Imirim", "amenity": "post_office"}}, {"type": "node", "id": 8185851209, "lat": -23.5010985, "lon": -46.6942772, "tags": {"addr:city": "S\u00e3o Paulo", "addr:housenumber": "206", "addr:street": "Rua Bonif\u00e1cio Cubas", "addr:suburb": "Freguesia do \u00d3", "amenity": "post_office", "brand": "Correios", "brand:wikidata": "Q3375004", "brand:wikipedia": "en:Correios", "name": "Correios"}}, {"type": "node", "id": 8224225643, "lat": -23.5071422, "lon": -46.6263196, "tags": {"addr:city": "S\u00e3o Paulo", "addr:housenumber": "1507", "addr:postcode": "02011-200", "addr:street": "Rua Volunt\u00e1rios da P\u00e1tria"}}, {"type": "node", "id": 8280948744, "lat": -23.5713077, "lon": -46.7089183, "tags": {"addr:city": "S\u00e3o Paulo", "addr:housenumber": "479", "addr:postcode": "05503-001", "addr:street": "Avenida Vital Brasil", "amenity": "post_office", "brand": "Empresa Brasileira de Correios e Tel\u00e9grafos", "brand:short": "Correios", "brand:wikidata": "Q3375004", "check_date": "2024-07-19", "name": "Correios"}}, {"type": "node", "id": 8347224001, "lat": -23.6253652, "lon": -46.6643912}, {"type": "node", "id": 8347224002, "lat": -23.6254661, "lon": -46.6645261}, {"type": "node", "id": 8347224003, "lat": -23.6255214, "lon": -46.6644743}, {"type": "node", "id": 8347224004, "lat": -23.6254196, "lon": -46.6643394}, {"type": "node", "id": 8446350529, "lat": -23.5542224, "lon": -46.7417319}, {"type": "node", "id": 8447196012, "lat": -23.5556308, "lon": -46.7401228}, {"type": "node", "id": 8447197929, "lat": -23.555396, "lon": -46.7403911}, {"type": "node", "id": 8758927235, "lat": -23.5247771, "lon": -46.6151049}, {"type": "node", "id": 8796058277, "lat": -23.5184351, "lon": -46.5899585, "tags": {"addr:city": "S\u00e3o Paulo", "addr:housenumber": "1225", "addr:postcode": "02113-013", "addr:street": "Avenida Guilherme Cotching"}}, {"type": "node", "id": 8796058278, "lat": -23.51846, "lon": -46.5899774, "tags": {"addr:city": "S\u00e3o Paulo", "addr:housenumber": "1219", "addr:postcode": "02113-013", "addr:street": "Avenida Guilherme Cotching"}}, {"type": "node", "id": 8883370598, "lat": -23.4921273, "lon": -46.6765855}, {"type": "node", "id": 8883370599, "lat": -23.4920736, "lon": -46.6765205}, {"type": "node", "id": 8883370600, "lat": -23.491906, "lon": -46.6766849}, {"type": "node", "id": 8883370602, "lat": -23.4919472, "lon": -46.6767349, "tags": {"addr:city": "S\u00e3o Paulo", "addr:housenumber": "1730", "addr:postcode": "02720-100", "addr:street": "Avenida Deputado Em\u00edlio Carlos"}}, {"type": "node", "id": 8895966661, "lat": -23.5095557, "lon": -46.6588154, "tags": {"addr:city": "S\u00e3o Paulo", "addr:housenumber": "424", "addr:postcode": "02515-000", "addr:street": "Rua Doutor C\u00e9sar Castiglioni Junior"}}, {"type": "node", "id": 8895966662, "lat": -23.5095612, "lon": -46.6586509}, {"type": "node", "id": 8895966663, "lat": -23.5096182, "lon": -46.6586646}, {"type": "node", "id": 8895966664, "lat": -23.5095862, "lon": -46.6588228}, {"type": "node", "id": 8895966665, "lat": -23.5095292, "lon": -46.6588091}, {"type": "node", "id": 9172423417, "lat": -23.554874, "lon": -46.6571327}, {"type": "node", "id": 9268412276, "lat": -23.5309039, "lon": -46.6007384}, {"type": "node", "id": 9362260847, "lat": -23.5374637, "lon": -46.6503658}, {"type": "node", "id": 9362260849, "lat": -23.5374471, "lon": -46.6503866}, {"type": "node", "id": 9362260850, "lat": -23.5374326, "lon": -46.6503301}, {"type": "node", "id": 9459382012, "lat": -23.650975, "lon": -46.7130305}, {"type": "node", "id": 9459382013, "lat": -23.6508697, "lon": -46.7130028}, {"type": "node", "id": 9459382014, "lat": -23.6508697, "lon": -46.7129117}, {"type": "node", "id": 9459382015, "lat": -23.6497049, "lon": -46.712773}, {"type": "node", "id": 9459382016, "lat": -23.6496868, "lon": -46.7128839}, {"type": "node", "id": 9459393417, "lat": -23.6495888, "lon": -46.71288}, {"type": "node", "id": 9459393418, "lat": -23.6495235, "lon": -46.713597}, {"type": "node", "id": 9459393419, "lat": -23.6496178, "lon": -46.713597}, {"type": "node", "id": 9459393420, "lat": -23.6496033, "lon": -46.7136921}, {"type": "node", "id": 9459393421, "lat": -23.650779, "lon": -46.7138624}, {"type": "node", "id": 9459393422, "lat": -23.6507899, "lon": -46.7137555}, {"type": "node", "id": 9459393423, "lat": -23.6508806, "lon": -46.7137594}, {"type": "node", "id": 9550218139, "lat": -23.5786718, "lon": -46.6624591, "tags": {"addr:city": "S\u00e3o Paulo", "addr:housenumber": "101;1", "addr:postcode": "01431-000", "addr:street": "Avenida Brasil", "alt_name": "AtacadoSuplemento.com.br", "building": "warehouse", "check_date": "2025-01-21", "check_date:currency:XBT": "2025-01-22", "contact:instagram": "https://www.instagram.com/atacado.suplemento/", "country": "BR", "currency:BRL": "yes", "description": "Site online de suplementos alimentares com ofertas para compras no varejo e no atacado.", "email": "sac@atacadosuplemento.com.br", "image": "https://atacadosuplemento.com.br/wp-content/uploads/logo-atacadosuplemento.png", "mobile": "+55 11 95092-5417", "name": "Atacado Suplemento", "nat_name": "www.AtacadoSuplemento.com.br", "official_name": "AtacadoSuplemento.com.br", "opening_hours": "24/7", "payment:cards": "yes", "payment:cash": "yes", "payment:contactless": "yes", "payment:credit_cards": "yes", "payment:debit_cards": "yes", "payment:pix": "yes", "phone": "+55 11 3280-0700", "shop": "supermarket", "survey:date": "2025-01-21", "website": "https://www.atacadosuplemento.com.br/", "wheelchair": "yes"}}, {"type": "node", "id": 9583282719, "lat": -23.5007814, "lon": -46.5899671}, {"type": "node", "id": 9583282720, "lat": -23.5008566, "lon": -46.5898929}, {"type": "node", "id": 9583282721, "lat": -23.5008188, "lon": -46.5898473}, {"type": "node", "id": 9583282722, "lat": -23.5007436, "lon": -46.5899216}, {"type": "node", "id": 9627074829, "lat": -23.5408516, "lon": -46.5504342}, {"type": "node", "id": 9627074830, "lat": -23.5408764, "lon": -46.5503778}, {"type": "node", "id": 9627074831, "lat": -23.5409173, "lon": -46.5503992}, {"type": "node", "id": 9627074832, "lat": -23.5408925, "lon": -46.5504556}, {"type": "node", "id": 9724948931, "lat": -23.5441042, "lon": -46.6908575}, {"type": "node", "id": 9724948932, "lat": -23.5441247, "lon": -46.690821}, {"type": "node", "id": 9724948933, "lat": -23.5441675, "lon": -46.6908495}, {"type": "node", "id": 9724948934, "lat": -23.544147, "lon": -46.6908861}, {"type": "node", "id": 9757559697, "lat": -23.5364892, "lon": -46.6854277}, {"type": "node", "id": 9757559698, "lat": -23.5364243, "lon": -46.6853808}, {"type": "node", "id": 9757559699, "lat": -23.5363344, "lon": -46.6855289}, {"type": "node", "id": 9788310151, "lat": -23.5395185, "lon": -46.6757045}, {"type": "node", "id": 9788310152, "lat": -23.5395085, "lon": -46.6756966}, {"type": "node", "id": 9788310153, "lat": -23.5395495, "lon": -46.6756348}, {"type": "node", "id": 9788310154, "lat": -23.5395595, "lon": -46.6756427}, {"type": "node", "id": 9848630364, "lat": -23.5664573, "lon": -46.5882173, "tags": {"addr:city": "S\u00e3o Paulo", "addr:housenumber": "1730", "addr:street": "Rua do Orat\u00f3rio", "amenity": "post_office", "brand": "Correios", "brand:wikidata": "Q3375004", "name": "Correios", "operator": "Correios", "operator:wikidata": "Q3375004"}}, {"type": "node", "id": 9938640614, "lat": -23.5750969, "lon": -46.6562507}, {"type": "node", "id": 10032233930, "lat": -23.6060877, "lon": -46.6637246}, {"type": "node", "id": 10032233931, "lat": -23.6063594, "lon": -46.6633887}, {"type": "node", "id": 10032233932, "lat": -23.6063948, "lon": -46.6633857}, {"type": "node", "id": 10032233933, "lat": -23.6070421, "lon": -46.6640191}, {"type": "node", "id": 10032233934, "lat": -23.6070375, "lon": -46.6639838}, {"type": "node", "id": 10032233959, "lat": -23.6067402, "lon": -46.6637071, "tags": {"addr:city": "S\u00e3o Paulo", "addr:housenumber": "96", "addr:postcode": "04081-010", "addr:street": "Rua Juquis", "entrance": "yes"}}, {"type": "node", "id": 10103293171, "lat": -23.6120439, "lon": -46.6616554}, {"type": "node", "id": 10103293172, "lat": -23.6120759, "lon": -46.6616147}, {"type": "node", "id": 10103293173, "lat": -23.6120236, "lon": -46.6615659}, {"type": "node", "id": 10103293174, "lat": -23.6119917, "lon": -46.6616066}, {"type": "node", "id": 10613274880, "lat": -23.5429097, "lon": -46.4945115}, {"type": "node", "id": 10613274881, "lat": -23.5430488, "lon": -46.4943898}, {"type": "node", "id": 10613274882, "lat": -23.5430192, "lon": -46.4946287}, {"type": "node", "id": 10674798774, "lat": -23.5750234, "lon": -46.5143781}, {"type": "node", "id": 10674798775, "lat": -23.5750761, "lon": -46.5144391}, {"type": "node", "id": 10871174097, "lat": -23.633751, "lon": -46.6393467, "tags": {"addr:city": "S\u00e3o Paulo", "addr:postcode": "04310-040", "addr:street": "Rua Guatapar\u00e1", "addr:suburb": "Vila Guarani", "amenity": "post_office", "brand": "Correios", "brand:wikidata": "Q3375004", "check_date": "2025-02-03", "name": "Correios", "opening_hours": "Mo-Fr 09:00-17:00; Sa-Su off", "source": "survey", "wheelchair": "yes"}}, {"type": "node", "id": 10927665071, "lat": -23.4860388, "lon": -46.6165574}, {"type": "node", "id": 10927665072, "lat": -23.4859771, "lon": -46.6166238}, {"type": "node", "id": 11038351707, "lat": -23.5833545, "lon": -46.5991653}, {"type": "node", "id": 11038351708, "lat": -23.5832781, "lon": -46.5991611}, {"type": "node", "id": 11125450053, "lat": -23.4961012, "lon": -46.6159722}, {"type": "node", "id": 11125450054, "lat": -23.4961568, "lon": -46.6158676}, {"type": "node", "id": 11125450055, "lat": -23.496073, "lon": -46.6159296}, {"type": "node", "id": 11125450056, "lat": -23.4961049, "lon": -46.6159778}, {"type": "node", "id": 11261810238, "lat": -23.5428357, "lon": -46.6560956}, {"type": "node", "id": 11261810239, "lat": -23.5428191, "lon": -46.6561614}, {"type": "node", "id": 11261810240, "lat": -23.5426985, "lon": -46.6561294}, {"type": "node", "id": 11261810241, "lat": -23.5427011, "lon": -46.6560654}, {"type": "node", "id": 11274831704, "lat": -23.5537333, "lon": -46.6594575}, {"type": "node", "id": 11274831705, "lat": -23.5537385, "lon": -46.6593894}, {"type": "node", "id": 11274831706, "lat": -23.5537669, "lon": -46.6594199}, {"type": "node", "id": 11302243656, "lat": -23.5473768, "lon": -46.7413994}, {"type": "node", "id": 11302243657, "lat": -23.5479135, "lon": -46.7408417}, {"type": "node", "id": 11302243658, "lat": -23.5483117, "lon": -46.741273}, {"type": "node", "id": 11302243659, "lat": -23.5479078, "lon": -46.7417105}, {"type": "node", "id": 11302243660, "lat": -23.5477468, "lon": -46.7415257}, {"type": "node", "id": 11302243661, "lat": -23.5476084, "lon": -46.7416797}, {"type": "node", "id": 11302262337, "lat": -23.5493568, "lon": -46.7405798}, {"type": "node", "id": 11302262338, "lat": -23.5498934, "lon": -46.7411621}, {"type": "node", "id": 11302262339, "lat": -23.550029, "lon": -46.741005}, {"type": "node", "id": 11302262340, "lat": -23.549498, "lon": -46.7404288}, {"type": "node", "id": 11302262341, "lat": -23.5498228, "lon": -46.7400653}, {"type": "node", "id": 11302262342, "lat": -23.5501137, "lon": -46.7403426}, {"type": "node", "id": 11302262343, "lat": -23.5502323, "lon": -46.7402008}, {"type": "node", "id": 11302262344, "lat": -23.5505374, "lon": -46.7404997}, {"type": "node", "id": 11302262345, "lat": -23.5507181, "lon": -46.7403025}, {"type": "node", "id": 11302262346, "lat": -23.5506193, "lon": -46.7402101}, {"type": "node", "id": 11302262347, "lat": -23.5506786, "lon": -46.7401392}, {"type": "node", "id": 11302262348, "lat": -23.5500798, "lon": -46.7395877}, {"type": "node", "id": 11302262349, "lat": -23.5498454, "lon": -46.7398835}, {"type": "node", "id": 11302262350, "lat": -23.5497098, "lon": -46.7397479}, {"type": "node", "id": 11302262351, "lat": -23.549772, "lon": -46.7396771}, {"type": "node", "id": 11302262352, "lat": -23.5496081, "lon": -46.7395138}, {"type": "node", "id": 11302262353, "lat": -23.5489896, "lon": -46.7402008}, {"type": "node", "id": 11302275751, "lat": -23.5460313, "lon": -46.7410092}, {"type": "node", "id": 11302275752, "lat": -23.5468781, "lon": -46.7400501}, {"type": "node", "id": 11302275753, "lat": -23.5474199, "lon": -46.7406411}, {"type": "node", "id": 11302275754, "lat": -23.5468781, "lon": -46.7412534}, {"type": "node", "id": 11302275755, "lat": -23.5465147, "lon": -46.7408889}, {"type": "node", "id": 11302275756, "lat": -23.5462227, "lon": -46.7412074}, {"type": "node", "id": 11302275757, "lat": -23.5435654, "lon": -46.7387406}, {"type": "node", "id": 11302275758, "lat": -23.5438931, "lon": -46.7390662}, {"type": "node", "id": 11302275759, "lat": -23.5440975, "lon": -46.7388007}, {"type": "node", "id": 11302275760, "lat": -23.5437633, "lon": -46.7384893}, {"type": "node", "id": 11302299078, "lat": -23.5483569, "lon": -46.7418615}, {"type": "node", "id": 11302299079, "lat": -23.5488512, "lon": -46.7423699}, {"type": "node", "id": 11302299080, "lat": -23.5490348, "lon": -46.7421573}, {"type": "node", "id": 11302299081, "lat": -23.5485377, "lon": -46.7416643}, {"type": "node", "id": 11302299110, "lat": -23.5446329, "lon": -46.7384079}, {"type": "node", "id": 11302299111, "lat": -23.5447497, "lon": -46.7385388}, {"type": "node", "id": 11302299112, "lat": -23.5449573, "lon": -46.7383053}, {"type": "node", "id": 11302299113, "lat": -23.5448243, "lon": -46.7381849}, {"type": "node", "id": 11302299114, "lat": -23.5444543, "lon": -46.7402537}, {"type": "node", "id": 11302299115, "lat": -23.5447518, "lon": -46.7405595}, {"type": "node", "id": 11302299116, "lat": -23.5453493, "lon": -46.7398943}, {"type": "node", "id": 11302299117, "lat": -23.5450444, "lon": -46.7395724}, {"type": "node", "id": 11302300563, "lat": -23.5492159, "lon": -46.739517}, {"type": "node", "id": 11302300564, "lat": -23.549338, "lon": -46.7396477}, {"type": "node", "id": 11302300565, "lat": -23.5495049, "lon": -46.7394586}, {"type": "node", "id": 11302300566, "lat": -23.549385, "lon": -46.7393278}, {"type": "node", "id": 11302303259, "lat": -23.5486252, "lon": -46.7398182}, {"type": "node", "id": 11302303260, "lat": -23.5488585, "lon": -46.7400493}, {"type": "node", "id": 11302303261, "lat": -23.5490725, "lon": -46.7398228}, {"type": "node", "id": 11302303262, "lat": -23.5491218, "lon": -46.7398625}, {"type": "node", "id": 11302303263, "lat": -23.549201, "lon": -46.7397738}, {"type": "node", "id": 11302303264, "lat": -23.5489805, "lon": -46.7395567}, {"type": "node", "id": 11302303265, "lat": -23.5489077, "lon": -46.7396337}, {"type": "node", "id": 11302303266, "lat": -23.5488371, "lon": -46.7395613}, {"type": "node", "id": 11302319699, "lat": -23.5419431, "lon": -46.7405456}, {"type": "node", "id": 11302319700, "lat": -23.5421638, "lon": -46.7407827}, {"type": "node", "id": 11302319701, "lat": -23.5431696, "lon": -46.7396608}, {"type": "node", "id": 11302319702, "lat": -23.5429457, "lon": -46.7394236}, {"type": "node", "id": 11302342876, "lat": -23.5443572, "lon": -46.7409285}, {"type": "node", "id": 11302346670, "lat": -23.5445621, "lon": -46.7407842}, {"type": "node", "id": 11302346671, "lat": -23.5447082, "lon": -46.7406267}, {"type": "node", "id": 11302346672, "lat": -23.5444194, "lon": -46.7403206}, {"type": "node", "id": 11302346673, "lat": -23.544262, "lon": -46.7404869}, {"type": "node", "id": 11302350753, "lat": -23.5435174, "lon": -46.741285}, {"type": "node", "id": 11302350754, "lat": -23.543811, "lon": -46.7409541}, {"type": "node", "id": 11302350755, "lat": -23.5440706, "lon": -46.7412301}, {"type": "node", "id": 11302350756, "lat": -23.5439668, "lon": -46.7413469}, {"type": "node", "id": 11302352071, "lat": -23.5443902, "lon": -46.7409665}, {"type": "node", "id": 11302352072, "lat": -23.5441193, "lon": -46.740655}, {"type": "node", "id": 11335998050, "lat": -23.5426512, "lon": -46.7432235}, {"type": "node", "id": 11335998051, "lat": -23.5428289, "lon": -46.7433648}, {"type": "node", "id": 11335998052, "lat": -23.5428792, "lon": -46.7433613}, {"type": "node", "id": 11335998053, "lat": -23.5430151, "lon": -46.7431686}, {"type": "node", "id": 11335998054, "lat": -23.5428535, "lon": -46.7430869}, {"type": "node", "id": 11335998055, "lat": -23.5427433, "lon": -46.7431021}, {"type": "node", "id": 11335998056, "lat": -23.5426758, "lon": -46.743164}, {"type": "node", "id": 11356392887, "lat": -23.5739559, "lon": -46.6558097, "tags": {"addr:city": "S\u00e3o Paulo", "addr:housenumber": "3252", "addr:postcode": "01402-001", "addr:street": "Avenida Brigadeiro Lu\u00eds Ant\u00f4nio", "amenity": "post_office"}}, {"type": "node", "id": 11396912696, "lat": -23.5642002, "lon": -46.6544254}, {"type": "node", "id": 11396912700, "lat": -23.5642401, "lon": -46.6544653}, {"type": "node", "id": 11396912701, "lat": -23.5642747, "lon": -46.6544234}, {"type": "node", "id": 11836044942, "lat": -23.5528591, "lon": -46.6085868, "tags": {"amenity": "post_office", "brand": "Correios", "brand:wikidata": "Q3375004", "name": "Correios"}}, {"type": "node", "id": 11905605037, "lat": -23.5618074, "lon": -46.4999192, "tags": {"amenity": "post_office", "brand": "Correios", "brand:wikidata": "Q3375004", "name": "Correios"}}, {"type": "node", "id": 11979565340, "lat": -23.6229284, "lon": -46.6989275, "tags": {"amenity": "post_office", "brand": "Empresa Brasileira de Correios e Tel\u00e9grafos", "brand:short": "Correios", "brand:wikidata": "Q3375004", "name": "Correios"}}, {"type": "node", "id": 11983705010, "lat": -23.4994203, "lon": -46.4399545}, {"type": "node", "id": 11983705011, "lat": -23.4994279, "lon": -46.4400337}, {"type": "node", "id": 11983705013, "lat": -23.49952, "lon": -46.4399406}, {"type": "node", "id": 11983705014, "lat": -23.4995164, "lon": -46.4400193}, {"type": "node", "id": 11986371144, "lat": -23.6037119, "lon": -46.6745593, "tags": {"addr:city": "S\u00e3o Paulo", "addr:housenumber": "2251", "addr:postcode": "04505-004", "addr:street": "Avenida Santo Amaro", "amenity": "post_office", "source": "pmsp"}}, {"type": "node", "id": 12449651923, "lat": -23.5388239, "lon": -46.664134, "tags": {"amenity": "post_office"}}, {"type": "node", "id": 12607563722, "lat": -23.5832777, "lon": -46.5991726}, {"type": "node", "id": 12607563723, "lat": -23.5833528, "lon": -46.5991745}, {"type": "node", "id": 12777185553, "lat": -23.5854053, "lon": -46.5562842}, {"type": "node", "id": 12777185554, "lat": -23.5854679, "lon": -46.5563006}, {"type": "node", "id": 12777185555, "lat": -23.5858263, "lon": -46.5540718}, {"type": "node", "id": 12777185556, "lat": -23.585885, "lon": -46.5540852}, {"type": "node", "id": 12986072260, "lat": -23.4050538, "lon": -46.7264588}, {"type": "node", "id": 12986072261, "lat": -23.4050841, "lon": -46.725983}, {"type": "node", "id": 12986072262, "lat": -23.403313, "lon": -46.7259532}, {"type": "node", "id": 12986072263, "lat": -23.403313, "lon": -46.7264423}, {"type": "node", "id": 12986072264, "lat": -23.4032511, "lon": -46.7263327}, {"type": "node", "id": 12986072265, "lat": -23.4032529, "lon": -46.7262878}, {"type": "node", "id": 12986072266, "lat": -23.403303, "lon": -46.7262852}, {"type": "node", "id": 12986072267, "lat": -23.4033039, "lon": -46.7263339}, {"type": "node", "id": 12986072269, "lat": -23.4038024, "lon": -46.7274163}, {"type": "node", "id": 12986072270, "lat": -23.4038224, "lon": -46.7269322}, {"type": "node", "id": 12986072271, "lat": -23.4049951, "lon": -46.7269421}, {"type": "node", "id": 12986072272, "lat": -23.4049787, "lon": -46.7274421}, {"type": "node", "id": 12986072273, "lat": -23.4047784, "lon": -46.7274381}, {"type": "node", "id": 12986072274, "lat": -23.4047802, "lon": -46.7276603}, {"type": "node", "id": 12986072275, "lat": -23.4039827, "lon": -46.7276504}, {"type": "node", "id": 12986072276, "lat": -23.4039954, "lon": -46.7274302}, {"type": "node", "id": 12986072277, "lat": -23.4034782, "lon": -46.7228129}, {"type": "node", "id": 12986072278, "lat": -23.4048288, "lon": -46.7228473}, {"type": "node", "id": 12986072279, "lat": -23.4048544, "lon": -46.7224149}, {"type": "node", "id": 12986072280, "lat": -23.4034903, "lon": -46.7223256}, {"type": "node", "id": 12986072281, "lat": -23.4044603, "lon": -46.7224065}, {"type": "node", "id": 12986072282, "lat": -23.4044595, "lon": -46.7224513}, {"type": "node", "id": 12986072283, "lat": -23.4038854, "lon": -46.7224503}, {"type": "node", "id": 12986072284, "lat": -23.4038919, "lon": -46.7224019}, {"type": "node", "id": 12986072285, "lat": -23.4037029, "lon": -46.7223186}, {"type": "node", "id": 12986072286, "lat": -23.4036931, "lon": -46.7224049}, {"type": "node", "id": 12986131006, "lat": -23.4033923, "lon": -46.7236953}, {"type": "node", "id": 12986131007, "lat": -23.4053475, "lon": -46.7237378}, {"type": "node", "id": 12986131008, "lat": -23.4053838, "lon": -46.723353}, {"type": "node", "id": 12986131009, "lat": -23.4034286, "lon": -46.723319}, {"type": "way", "id": 248515010, "nodes": [2552889720, 2552889724, 2552889722, 2552889718, 2552889720], "tags": {"building": "warehouse", "source": "Bing"}}, {"type": "way", "id": 248515011, "nodes": [2552889733, 2552889735, 2552889734, 2552889729, 2552889733], "tags": {"building": "warehouse", "source": "Bing"}}, {"type": "way", "id": 248515012, "nodes": [2552889726, 2552889732, 2552889731, 2552889730, 2552889728, 2552889727, 2552889725, 2552889723, 2552889726], "tags": {"building": "warehouse", "source": "Bing"}}, {"type": "way", "id": 329032542, "nodes": [3358532980, 3358532953]}, {"type": "way", "id": 329032546, "nodes": [3358529890, 3358533108]}, {"type": "way", "id": 329032577, "nodes": [3358533311, 3358529884]}, {"type": "way", "id": 329032609, "nodes": [3358532466, 3358532607]}, {"type": "way", "id": 329032677, "nodes": [3358532953, 3358532932]}, {"type": "way", "id": 329032678, "nodes": [3358533108, 3358532980]}, {"type": "way", "id": 329032688, "nodes": [3358531896, 3358530780]}, {"type": "way", "id": 329032706, "nodes": [599043092, 3358532626]}, {"type": "way", "id": 329032707, "nodes": [3358533305, 3358529890]}, {"type": "way", "id": 329032723, "nodes": [3358532581, 3358532564]}, {"type": "way", "id": 329032724, "nodes": [3358532564, 3358532541]}, {"type": "way", "id": 329032757, "nodes": [3358533616, 3358533649]}, {"type": "way", "id": 329032771, "nodes": [3358532587, 3358532569]}, {"type": "way", "id": 329032779, "nodes": [3358532903, 3358532581]}, {"type": "way", "id": 329032786, "nodes": [3358529884, 3358533107]}, {"type": "way", "id": 329032804, "nodes": [3358531922, 3358532037]}, {"type": "way", "id": 329032826, "nodes": [3358532437, 3358532463]}, {"type": "way", "id": 329032858, "nodes": [3358532343, 3358532196]}, {"type": "way", "id": 329032861, "nodes": [3358530143, 3358533355]}, {"type": "way", "id": 329032890, "nodes": [3358530780, 3358530764]}, {"type": "way", "id": 329032912, "nodes": [3358532418, 3358532396]}, {"type": "way", "id": 329032915, "nodes": [3358532947, 3358532928]}, {"type": "way", "id": 329032916, "nodes": [3358532978, 3358532947]}, {"type": "way", "id": 329032925, "nodes": [3358532037, 3358532060]}, {"type": "way", "id": 329032929, "nodes": [3358532569, 3358532637]}, {"type": "way", "id": 329032935, "nodes": [3358532932, 3358532903]}, {"type": "way", "id": 329032940, "nodes": [3358532196, 3358532077]}, {"type": "way", "id": 329032943, "nodes": [3358532396, 3358532363]}, {"type": "way", "id": 329032948, "nodes": [3358532463, 3358532466]}, {"type": "way", "id": 329032955, "nodes": [3358530752, 3358530745]}, {"type": "way", "id": 329032957, "nodes": [3358532541, 599043092]}, {"type": "way", "id": 329033004, "nodes": [3358532418, 3358532427, 3358532437]}, {"type": "way", "id": 329033008, "nodes": [3358532587, 3358532900, 3358532928]}, {"type": "way", "id": 329033018, "nodes": [3358531896, 3358531909, 3358531922]}, {"type": "way", "id": 329033021, "nodes": [599043095, 599043094, 3358533305]}, {"type": "way", "id": 329033032, "nodes": [3358533311, 3358533332, 3358533355]}, {"type": "way", "id": 329033045, "nodes": [3358532343, 3358532352, 3358532363]}, {"type": "way", "id": 329033049, "nodes": [3358532607, 3358532623, 3358532637]}, {"type": "way", "id": 329033051, "nodes": [599043095, 3358533374, 3358533616]}, {"type": "way", "id": 329033064, "nodes": [3358530752, 3358530758, 3358530764]}, {"type": "way", "id": 329033072, "nodes": [3358532626, 599043100, 3358532445]}, {"type": "way", "id": 329033078, "nodes": [3358532978, 3358533093, 3358533107]}, {"type": "way", "id": 329033088, "nodes": [3358532060, 3358532067, 3358532077]}, {"type": "way", "id": 329033164, "nodes": [3358532445, 599043110, 3358530750, 599043104, 3358530745]}, {"type": "way", "id": 329033168, "nodes": [3358530143, 599043097, 3358533647, 599043085, 3358533649]}, {"type": "way", "id": 340182454, "nodes": [3473954856, 5329450502, 3473954857, 3473954858, 3473954859, 3473954860, 3473954856], "tags": {"building": "warehouse"}}, {"type": "way", "id": 359645089, "nodes": [3643215865, 6737073670, 6737073667, 6737085490, 6737085491, 6737073673, 6737073676, 6737073677, 3643215863, 3643215868, 3643215864, 3643215865], "tags": {"building": "warehouse", "building:levels": "1", "height": "8.34", "source": "pmsp"}}, {"type": "way", "id": 359645094, "nodes": [3643220221, 3643220222, 3643220223, 3643220224, 3643220225, 3643220226, 3643220221], "tags": {"building": "warehouse"}}, {"type": "way", "id": 360360098, "nodes": [3649136475, 3649136476, 6733213587, 3649136477, 6733213605, 6733213599, 3649136472, 3649136474, 3649136473, 3649136475], "tags": {"building": "warehouse", "height": "8.711", "source": "pmsp"}}, {"type": "way", "id": 367319778, "nodes": [4622820113, 3712572819, 3712572818, 12607563722, 11038351708, 3712572817, 3712572816, 3712572815, 3712572814, 3712572813, 3712572812, 11038351707, 12607563723, 3712572811, 3712572810, 3712572809, 4622820113], "tags": {"addr:city": "S\u00e3o Paulo", "addr:housenumber": "66", "addr:street": "Rua Bar\u00e3o de Ressende", "amenity": "fuel", "brand": "Ale", "brand:wikidata": "Q9600717", "building": "warehouse", "fuel:etanol_comum": "yes", "fuel:gasoline_87": "yes", "height": "5.757", "source": "pmsp"}}, {"type": "way", "id": 371608418, "nodes": [6721366662, 3751731889, 3751731892, 3751731891, 6721366656, 6721366655, 6721366661, 6721366662], "tags": {"addr:city": "S\u00e3o Paulo", "addr:street": "Rua Ulisses Cruz", "building": "warehouse", "height": "13.7", "name": "Souza Cruz", "source": "pmsp"}}, {"type": "way", "id": 383107415, "nodes": [3863107143, 3863107141, 3863107142, 3863107140, 4799881932, 3863107138, 3863107137, 5874747308, 5874747307, 3863107136, 5874747306, 3863107146, 3863107145, 5874747305, 5874747304, 5874747303, 5874747302, 5874747301, 5874747300, 5874747299, 5874747298, 5874747297, 5874747296, 3863107144, 5874747295, 5874747294, 5874747293, 5874747292, 3863107143], "tags": {"amenity": "post_office", "brand": "Empresa Brasileira de Correios e Tel\u00e9grafos", "brand:short": "Correios", "brand:wikidata": "Q3375004", "building": "yes", "height": "10.972", "name": "Correios", "source": "pmsp"}}, {"type": "way", "id": 391844083, "nodes": [4593823997, 4593823999, 4593824000, 4593824001, 4593796752, 3414783363, 8758927235, 4593806362, 4593823997], "tags": {"building": "warehouse", "height": "10.163", "source": "pmsp"}}, {"type": "way", "id": 391844087, "nodes": [4593793075, 4593793080, 4593793196, 4593793197, 4593793068, 3951033790, 5375303419, 3951033791, 4593793075], "tags": {"building": "warehouse", "height": "9.677", "source": "pmsp"}}, {"type": "way", "id": 391844088, "nodes": [4593793197, 4593793198, 4593793067, 4593793066, 4593793065, 4593793064, 4593793063, 4593793062, 4593793061, 4593793060, 4593793059, 4593793058, 4593793057, 4593793068, 4593793197], "tags": {"building": "warehouse", "height": "3.139", "source": "pmsp"}}, {"type": "way", "id": 420429617, "nodes": [9172423417, 4203588069, 4203588251, 4992752363, 4203588284, 4203588274, 4203588213, 4203588191, 4203588015, 4203587760, 4203587746, 4203587744, 4203587733, 4203587730, 4203587756, 4203587740, 4203587712, 4203587704, 4203587696, 4203587781, 4203588011, 4203588021, 9172423417], "tags": {"addr:city": "S\u00e3o Paulo", "addr:housenumber": "1260", "addr:postcode": "01304-001", "addr:street": "Rua Augusta", "addr:suburb": "Bela Vista", "amenity": "post_office", "building": "yes", "check_date": "2024-05-06", "height": "5.575", "name": "Distribui\u00e7\u00e3o Correios", "operator": "Correios", "operator:wikidata": "Q3375004", "operator:wikipedia": "en:Correios"}}, {"type": "way", "id": 421359758, "nodes": [4211299904, 4211299900, 4211299898, 4211299899, 4211299908, 4211299909, 4211299907, 4211299904], "tags": {"amenity": "post_office", "brand": "Correios", "brand:wikidata": "Q3375004", "brand:wikipedia": "en:Correios", "building": "yes", "height": "5.87", "name": "Correios", "source": "survey"}}, {"type": "way", "id": 439290553, "nodes": [4369240159, 4369240435, 4369238988, 4369238910, 4369239419, 4369239583, 4369240088, 4369240465, 4369240924, 4369240637, 4369241610, 4369241903, 4369241252, 4369240937, 4369240159], "tags": {"addr:city": "S\u00e3o Paulo", "addr:housenumber": "26", "addr:postcode": "04055-090", "addr:street": "Rua D\u00e9cio", "addr:suburb": "Sa\u00fade", "building": "warehouse", "height": "5.72", "name": "Positivo Tecnologia", "source": "pmsp;local knowledge;survey"}}, {"type": "way", "id": 448228373, "nodes": [4452623702, 4452623703, 4452623704, 4452623705, 4452623706, 4452623702], "tags": {"addr:city": "S\u00e3o Paulo", "addr:housenumber": "19547", "addr:street": "Avenida Na\u00e7\u00f5es Unidas", "addr:suburb": "Santo Amaro", "building": "warehouse", "name": "Inbox Guarda Tudo", "opening_hours": "Mo-Fr 08:00-18:00; Sa 08:00-13:00", "phone": "+55 11 5541-9478", "shop": "storage_rental", "source": "Mapillary", "website": "https://www.inboxguardatudo.com.br/selfstorage-inbox-unidade-sul.php"}}, {"type": "way", "id": 453404676, "nodes": [4501397785, 4770040149, 4501397784, 4501397783, 4501397782, 4501397781, 4501397780, 4501397779, 4501397778, 4501397785], "tags": {"addr:city": "S\u00e3o Paulo", "building": "warehouse", "height": "8.634", "name": "Braspress Transportadora", "source": "pmsp", "website": "https://www.braspress.com.br/home"}}, {"type": "way", "id": 453409563, "nodes": [4501443987, 4501443988, 4501445505, 4501445506, 4501443985, 4501443986, 4501443808, 4501443807, 4501443987], "tags": {"building": "warehouse", "height": "5.789", "source": "pmsp"}}, {"type": "way", "id": 453409597, "nodes": [4501443991, 4501443992, 4501443990, 4501443989, 4501443988, 4501443987, 4501443986, 4501443985, 4501443991], "tags": {"building": "warehouse", "height": "5.219", "source": "pmsp"}}, {"type": "way", "id": 453409598, "nodes": [4501443997, 4501443994, 4501443993, 4501443998, 4501443999, 4501443992, 4501443991, 4501443996, 4501443997], "tags": {"building": "warehouse", "height": "6.319", "source": "pmsp"}}, {"type": "way", "id": 453409599, "nodes": [4501444001, 4501444002, 4501444005, 4501444006, 4501444000, 4501443999, 4501443998, 4501443997, 4501443996, 4501443995, 4501444001], "tags": {"building": "warehouse", "height": "6.109", "source": "pmsp"}}, {"type": "way", "id": 453409778, "nodes": [4501445495, 4501445496, 4501445494, 4501445493, 4501445492, 4501445491, 4501445490, 4501445495], "tags": {"building": "warehouse", "height": "5.699", "source": "pmsp"}}, {"type": "way", "id": 453409779, "nodes": [4501445500, 4501445501, 4501445499, 4501445498, 4501445497, 4501445496, 4501445495, 4501445500], "tags": {"building": "warehouse", "height": "5.629", "source": "pmsp"}}, {"type": "way", "id": 453409780, "nodes": [4501445506, 4501445505, 4501445504, 4501445503, 4501445502, 4501445501, 4501445500, 4501445506], "tags": {"building": "warehouse", "height": "5.539", "source": "pmsp"}}, {"type": "way", "id": 459349198, "nodes": [4552147222, 4552147223, 4552147224, 4552147225, 4552147222], "tags": {"building": "warehouse", "height": "8.876", "name": "Receita Federal (armazem)", "office": "government", "source": "pmsp"}}, {"type": "way", "id": 464244924, "nodes": [4593807069, 4593812406, 4593812407, 4593807062, 3456352981, 4593807061, 4593807069], "tags": {"building": "warehouse", "height": "5.31", "source": "pmsp"}}, {"type": "way", "id": 467762989, "nodes": [4623626426, 2613631274, 4623626423, 4623626424, 4623626425, 2613631275, 4623626427, 9268412276, 4623626428, 4623626429, 4623626430, 4623626431, 4594888737, 4594888738, 4594888739, 4594888740, 4594888741, 4594888742, 4594888743, 4623626435, 4623626436, 4623626437, 4623626426], "tags": {"building": "warehouse"}}, {"type": "way", "id": 490203130, "nodes": [4823782707, 4823782708, 4823782709, 4823782710, 4823782707], "tags": {"building": "warehouse"}}, {"type": "way", "id": 490203137, "nodes": [4823782720, 4823787121, 8446350529, 4823574646, 4823787122, 4823787123, 4823782720], "tags": {"building": "warehouse", "height": "17"}}, {"type": "way", "id": 490203139, "nodes": [4823787124, 4823787125, 8447197929, 8447196012, 4823787126, 4823787127, 4823787124], "tags": {"building": "warehouse"}}, {"type": "way", "id": 490203142, "nodes": [4823787128, 4823787129, 4823787130, 4823787131, 4823787128], "tags": {"building": "warehouse", "height": "17"}}, {"type": "way", "id": 519983097, "nodes": [5069123631, 12777185554, 12777185553, 12777185555, 12777185556, 5069123630, 5069123629, 5069123628, 5069123631], "tags": {"building": "warehouse", "building:levels": "1", "height": "18", "layer": "1", "name": "Pr\u00e9dio A"}}, {"type": "way", "id": 520995469, "nodes": [5076967585, 5076967584, 5076967583, 5076967582, 5076967585], "tags": {"addr:city": "S\u00e3o Paulo", "addr:housenumber": "646", "addr:street": "Rua Mergentalher", "amenity": "post_office", "landuse": "commercial", "name": "Diretoria Regional de S\u00e3o Paulo da Empresa de Correios e Tel\u00e9grafos;Ag\u00eancia Cidade De S\u00e3o Paulo (Vila Leopoldina)", "operator": "Correios", "operator:wikidata": "Q3375004", "operator:wikipedia": "en:Correios", "source": "pmsp;correios"}}, {"type": "way", "id": 521413504, "nodes": [9938640614, 5080581430, 5080581429, 5080581428, 5080581427, 5080581426, 5080581397, 5080581398, 5080581425, 9938640614], "tags": {"addr:city": "S\u00e3o Paulo", "addr:housenumber": "3371", "addr:postcode": "01401-001", "addr:street": "Avenida Brigadeiro Lu\u00eds Ant\u00f4nio", "amenity": "post_office", "brand": "Empresa Brasileira de Correios e Tel\u00e9grafos", "brand:short": "Correios", "brand:wikidata": "Q3375004", "building": "yes", "height": "5.652", "name": "Correios", "source": "pmsp"}}, {"type": "way", "id": 543835959, "nodes": [5257172020, 5257173121, 5257173122, 5257173123, 5257172020], "tags": {"amenity": "post_office"}}, {"type": "way", "id": 615984439, "nodes": [5824282803, 5824282802, 5824282801, 5824282800, 5824282799, 6750152226, 5824282797, 6750152225, 6750152224, 6750152227, 5824282794, 5824282793, 5824282792, 5824282791, 5824282790, 5824282789, 5824282788, 5824282787, 5824282786, 5824282803], "tags": {"building": "warehouse", "source": "Bing"}}, {"type": "way", "id": 618148560, "nodes": [5842787305, 5842787304, 5842787303, 5842787302, 5842787301, 5842787300, 5842787299, 5842787298, 3429193745, 8224225643, 5842787297, 5842787296, 5842787305], "tags": {"addr:city": "S\u00e3o Paulo", "addr:housenumber": "1511", "addr:postcode": "02011-200", "addr:street": "Rua Volunt\u00e1rios da P\u00e1tria", "amenity": "post_office", "brand": "Correios", "brand:wikidata": "Q3375004", "brand:wikipedia": "en:Correios", "building": "yes", "height": "4.682", "name": "Correios", "source": "pmsp"}}, {"type": "way", "id": 618598032, "nodes": [5846785317, 5846785318, 5846785319, 5846785320, 5846785317], "tags": {"building": "warehouse", "height": "7.25", "source": "pmsp"}}, {"type": "way", "id": 619083086, "nodes": [5850548742, 5850548147, 5850548146, 5850548145, 5850548144, 5850548143, 5850548742], "tags": {"addr:housenumber": "83", "addr:street": "Avenida Senador Teot\u00f4nio Vilela", "amenity": "post_office", "brand": "Correios", "brand:wikidata": "Q3375004", "building": "yes", "height": "11.5", "name": "Correios", "operator": "Correios", "operator:wikidata": "Q3375004", "source": "pmsp"}}, {"type": "way", "id": 620482361, "nodes": [5862011726, 5862011725, 5862011724, 5862011723, 5862011726], "tags": {"amenity": "post_office", "building": "yes", "height": "4.38", "name": "AGF Figueira Grande", "operator": "Correios", "operator:wikidata": "Q3375004", "operator:wikipedia": "en:Correios", "source": "pmsp"}}, {"type": "way", "id": 620669266, "nodes": [5863874181, 5863874183, 5863874184, 5863876785, 5863874181], "tags": {"addr:city": "S\u00e3o Paulo", "addr:housenumber": "1153", "addr:postcode": "04734-002", "addr:street": "Avenida Adolfo Pinheiro", "addr:suburb": "Santo Amaro", "amenity": "post_office", "brand": "Empresa Brasileira de Correios e Tel\u00e9grafos", "brand:short": "Correios", "brand:wikidata": "Q3375004", "brand:wikipedia": "en:Correios", "building": "yes", "layer": "-1", "location": "surface", "name": "Correios", "operator": "Correios", "operator:wikidata": "Q3375004", "operator:wikipedia": "en:Correios"}}, {"type": "way", "id": 621832027, "nodes": [5874264636, 5874264635, 5874264634, 5874264633, 5874264632, 5874264631, 5874264630, 5874264629, 5874264636], "tags": {"addr:housenumber": "979", "addr:street": "Avenida Fiorelli Peccicacco", "building": "warehouse", "height": "4.421", "source": "pmsp"}}, {"type": "way", "id": 622619058, "nodes": [5880606145, 5880599677, 5880599676, 5880606023, 5880606016, 5880606011, 5880599675, 5880599674, 5880599673, 5880599672, 5880599671, 5880599670, 5880606144, 5880606145], "tags": {"addr:city": "S\u00e3o Paulo", "addr:housenumber": "2161", "addr:postcode": "08471-000", "addr:street": "Avenida dos Metal\u00fargicos", "addr:suburb": "Cidade Tiradentes", "amenity": "post_office", "building": "yes", "height": "3.545", "name": "AGF Tiradentes - Correios", "opening_hours": "Mo-Fr 09:00-17:00", "operator": "Correios", "operator:wikidata": "Q3375004", "operator:wikipedia": "en:Correios", "phone": "(11) 2282-1230", "source": "pmsp", "wheelchair": "yes"}}, {"type": "way", "id": 697887537, "nodes": [6554169558, 6554169559, 6554169560, 6554169561, 6554169558], "tags": {"amenity": "post_office", "brand": "Correios", "brand:wikidata": "Q3375004", "brand:wikipedia": "en:Correios", "building": "yes", "name": "Correios"}}, {"type": "way", "id": 714047664, "nodes": [6712833939, 6712833938, 3438027834, 6712833936, 6712833935, 6712833934, 6712833933, 6712833932, 6712833939], "tags": {"addr:city": "S\u00e3o Paulo", "addr:housenumber": "1989", "addr:postcode": "02071-013", "addr:street": "Rua Maria C\u00e2ndida", "addr:suburb": "Vila Guilherme", "amenity": "post_office", "brand": "Correios", "brand:wikidata": "Q3375004", "brand:wikipedia": "en:Correios", "building": "yes", "height": "5.36", "name": "Correios", "source": "pmsp"}}, {"type": "way", "id": 714644844, "nodes": [6717579060, 6717579061, 6717579059, 6717579058, 8796058277, 8796058278, 6717597234, 6717597235, 6717579060], "tags": {"addr:city": "S\u00e3o Paulo", "addr:housenumber": "1225", "addr:postcode": "02113-013", "addr:street": "Avenida Guilherme Cotching", "addr:suburb": "Vila Maria", "amenity": "post_office", "brand": "Correios", "brand:wikidata": "Q3375004", "brand:wikipedia": "en:Correios", "building": "yes", "height": "14.343", "name": "Correios", "operator": "Correios", "operator:wikidata": "Q3375004", "operator:wikipedia": "en:Correios", "source": "pmsp"}}, {"type": "way", "id": 714925589, "nodes": [6719982941, 6719982942, 6719982943, 6719982944, 6719982941], "tags": {"building": "warehouse"}}, {"type": "way", "id": 771073109, "nodes": [4369180867, 7197867448, 4369180374, 4369180474, 4369180956, 4369180989, 4369180985, 4369180829, 4369180815, 7197867451, 7197867453, 4369182443, 4369182497, 4369182703, 4369176269, 4369182590, 4369182178, 4369180867], "tags": {"addr:city": "S\u00e3o Paulo", "addr:housenumber": "1195", "addr:postcode": "04045-002", "addr:street": "Avenida Jabaquara", "amenity": "post_office", "brand": "Empresa Brasileira de Correios e Tel\u00e9grafos", "brand:short": "Correios", "brand:wikidata": "Q3375004", "brand:wikipedia": "en:Correios", "name": "Correios"}}, {"type": "way", "id": 898199999, "nodes": [8347224001, 8347224002, 8347224003, 8347224004, 8347224001], "tags": {"addr:city": "S\u00e3o Paulo", "addr:housenumber": "1911", "addr:postcode": "04615-970", "addr:street": "Rua Doutor Jesu\u00edno Maciel", "addr:suburb": "Campo Belo", "amenity": "post_office", "brand": "Correios", "brand:wikidata": "Q3375004", "brand:wikipedia": "en:Correios", "building": "yes", "name": "Correios", "website": "https://correios.com.br/"}}, {"type": "way", "id": 960130763, "nodes": [4375634989, 8883370598, 8883370599, 8883370600, 4375634888, 8883370602, 4375634989], "tags": {"addr:city": "S\u00e3o Paulo", "addr:housenumber": "1730", "addr:postcode": "02720-100", "addr:street": "Avenida Deputado Em\u00edlio Carlos", "addr:suburb": "Bairro do Lim\u00e3o", "amenity": "post_office", "brand": "Correios", "brand:wikidata": "Q3375004", "brand:wikipedia": "en:Correios", "building": "yes", "height": "7", "name": "Correios", "operator": "Correios", "operator:wikidata": "Q3375004", "operator:wikipedia": "en:Correios", "roof:colour": "grey", "roof:shape": "hipped"}}, {"type": "way", "id": 961718214, "nodes": [8895966665, 8895966662, 8895966663, 8895966664, 8895966661, 8895966665], "tags": {"addr:city": "S\u00e3o Paulo", "addr:housenumber": "424", "addr:postcode": "02515-000", "addr:street": "Rua Doutor C\u00e9sar Castiglioni Junior", "addr:suburb": "Casa Verde Baixa", "amenity": "post_office", "brand": "Correios", "brand:wikidata": "Q3375004", "brand:wikipedia": "en:Correios", "building": "yes", "name": "Correios"}}, {"type": "way", "id": 1014885910, "nodes": [9362260849, 9362260847, 9362260850, 4213246145, 9362260849], "tags": {"addr:city": "S\u00e3o Paulo", "addr:housenumber": "1045", "addr:postcode": "01215-001", "addr:street": "Alameda Glete", "addr:suburb": "Santa Cec\u00edlia", "amenity": "post_office"}}, {"type": "way", "id": 1025990204, "nodes": [9459382012, 9459382013, 9459382014, 9459382015, 9459382016, 9459393417, 9459393418, 9459393419, 9459393420, 9459393421, 9459393422, 9459393423, 9459382012], "tags": {"amenity": "post_office", "brand": "Empresa Brasileira de Correios e Tel\u00e9grafos", "brand:short": "Correios", "brand:wikidata": "Q3375004", "brand:wikipedia": "en:Correios", "building": "yes", "name": "CEE Santo Amaro", "operator": "Correios", "operator:wikidata": "Q3375004", "operator:wikipedia": "en:Correios"}}, {"type": "way", "id": 1040871933, "nodes": [9583282719, 9583282720, 9583282721, 9583282722, 9583282719], "tags": {"addr:city": "S\u00e3o Paulo", "addr:housenumber": "31", "addr:postcode": "02127-030", "addr:street": "Pra\u00e7a Maria Montessori", "addr:suburb": "Vila Maria Alta", "amenity": "post_office", "brand": "Empresa Brasileira de Correios e Tel\u00e9grafos", "brand:short": "Correios", "brand:wikidata": "Q3375004", "name": "AGF Montessori", "opening_hours": "Mo-Sa 08:00-17:00", "operator": "Correios", "operator:wikidata": "Q3375004", "operator:wikipedia": "en:Correios"}}, {"type": "way", "id": 1046908798, "nodes": [9627074829, 9627074830, 9627074831, 9627074832, 9627074829], "tags": {"addr:city": "S\u00e3o Paulo", "addr:housenumber": "840", "addr:street": "Avenida Conselheiro Carr\u00e3o", "amenity": "post_office", "operator": "Correios", "operator:wikidata": "Q3375004", "operator:wikipedia": "en:Correios"}}, {"type": "way", "id": 1058336455, "nodes": [9724948931, 9724948932, 9724948933, 9724948934, 9724948931], "tags": {"addr:city": "S\u00e3o Paulo", "addr:housenumber": "2384", "addr:postcode": "05022-000", "addr:street": "Avenida Pompeia", "addr:suburb": "Sumar\u00e9", "amenity": "post_office", "operator": "Correios", "operator:wikidata": "Q3375004"}}, {"type": "way", "id": 1062116178, "nodes": [456340121, 9757559697, 9757559698, 9757559699, 456340121], "tags": {"addr:city": "S\u00e3o Paulo", "addr:housenumber": "1074", "addr:postcode": "05020-000", "addr:street": "Rua Cara\u00edbas", "addr:suburb": "Perdizes", "amenity": "post_office"}}, {"type": "way", "id": 1065867125, "nodes": [9788310151, 9788310152, 9788310153, 9788310154, 9788310151], "tags": {"addr:city": "S\u00e3o Paulo", "addr:housenumber": "832", "addr:postcode": "05011-001", "addr:street": "Rua Vanderlei", "amenity": "post_office", "operator": "Correios", "operator:wikidata": "Q3375004"}}, {"type": "way", "id": 1095465989, "nodes": [5080424936, 5080424968, 10032233930, 10032233931, 10032233932, 10032233959, 10032233934, 10032233933, 5080424936], "tags": {"addr:city": "S\u00e3o Paulo", "addr:housenumber": "96", "addr:postcode": "04081-010", "addr:street": "Rua Juquis", "amenity": "post_office", "barrier": "wall"}}, {"type": "way", "id": 1104087234, "nodes": [10103293171, 10103293172, 10103293173, 10103293174, 10103293171], "tags": {"addr:city": "S\u00e3o Paulo", "addr:housenumber": "666", "addr:postcode": "04082-002", "addr:street": "Avenida Ira\u00ed", "amenity": "post_office", "operator": "Correios", "operator:wikidata": "Q3375004"}}, {"type": "way", "id": 1138561723, "nodes": [2888320138, 10613274880, 10613274881, 10613274882, 2888320138], "tags": {"addr:city": "S\u00e3o Paulo", "addr:housenumber": "515", "addr:street": "Avenida Doutor Pereira Vergueiro", "amenity": "post_office", "source": "source=knowledge"}}, {"type": "way", "id": 1147199064, "nodes": [6718823529, 10674798774, 10674798775, 6718797552, 6718823527, 6718823528, 6718823529], "tags": {"addr:city": "S\u00e3o Paulo", "addr:housenumber": "1285", "addr:street": "Avenida Inconfid\u00eancia Mineira", "building": "warehouse", "name": "Rei do Gesso", "shop": "hardware"}}, {"type": "way", "id": 1176081972, "nodes": [4089841598, 10927665071, 10927665072, 6250375701, 4089841598], "tags": {"addr:city": "S\u00e3o Paulo", "addr:housenumber": "942", "addr:postcode": "02330-001", "addr:street": "Avenida Nova Cantareira", "amenity": "post_office"}}, {"type": "way", "id": 1199509854, "nodes": [11125450053, 11125450056, 5843062632, 5843062631, 11125450054, 11125450055, 11125450053], "tags": {"addr:city": "S\u00e3o Paulo", "addr:housenumber": "69", "addr:postcode": "02045-070", "addr:street": "Rua Guajurus", "amenity": "post_office", "name": "Papelaria e Correios", "shop": "stationery"}}, {"type": "way", "id": 1215492653, "nodes": [11261810238, 11261810239, 11261810240, 11261810241, 11261810238], "tags": {"addr:city": "S\u00e3o Paulo", "addr:housenumber": "1133", "addr:postcode": "01227-100", "addr:street": "Avenida Ang\u00e9lica", "amenity": "post_office"}}, {"type": "way", "id": 1216824063, "nodes": [11274831704, 4992804790, 11274831705, 11274831706, 11274831704], "tags": {"addr:city": "S\u00e3o Paulo", "addr:housenumber": "404", "addr:postcode": "01309-020", "addr:street": "Rua Matias Aires", "amenity": "post_office", "brand": "Empresa Brasileira de Correios e Tel\u00e9grafos", "brand:short": "Correios", "brand:wikidata": "Q3375004", "name": "Correios"}}, {"type": "way", "id": 1219758482, "nodes": [11302299078, 11302299079, 11302299080, 11302299081, 11302299078], "tags": {"building": "warehouse"}}, {"type": "way", "id": 1219758788, "nodes": [11302262337, 11302262338, 11302262339, 11302262340, 11302262341, 11302262342, 11302262343, 11302262344, 11302262345, 11302262346, 11302262347, 11302262348, 11302262349, 11302262350, 11302262351, 11302262352, 11302262353, 11302262337], "tags": {"building": "warehouse"}}, {"type": "way", "id": 1219758854, "nodes": [11302243656, 11302243657, 11302243658, 11302243659, 11302243660, 11302243661, 11302243656], "tags": {"building": "warehouse"}}, {"type": "way", "id": 1219759064, "nodes": [11302303259, 11302303260, 11302303261, 11302303262, 11302303263, 11302303264, 11302303265, 11302303266, 11302303259], "tags": {"building": "warehouse"}}, {"type": "way", "id": 1219759228, "nodes": [11302300563, 11302300564, 11302300565, 11302300566, 11302300563], "tags": {"building": "warehouse"}}, {"type": "way", "id": 1219759854, "nodes": [11302275751, 11302275752, 11302275753, 11302275754, 11302275755, 11302275756, 11302275751], "tags": {"building": "warehouse"}}, {"type": "way", "id": 1219761047, "nodes": [11302319699, 11302319700, 11302319701, 11302319702, 11302319699], "tags": {"building": "warehouse"}}, {"type": "way", "id": 1219761237, "nodes": [11302275757, 11302275758, 11302275759, 11302275760, 11302275757], "tags": {"building": "warehouse"}}, {"type": "way", "id": 1219761323, "nodes": [11302299110, 11302299111, 11302299112, 11302299113, 11302299110], "tags": {"building": "warehouse"}}, {"type": "way", "id": 1219762667, "nodes": [11302299114, 11302299115, 11302299116, 11302299117, 11302299114], "tags": {"building": "warehouse"}}, {"type": "way", "id": 1219763327, "nodes": [11302350753, 11302350754, 11302350755, 11302350756, 11302350753], "tags": {"building": "warehouse"}}, {"type": "way", "id": 1219763403, "nodes": [11302346670, 11302346671, 11302346672, 11302346673, 11302346670], "tags": {"building": "warehouse"}}, {"type": "way", "id": 1219763519, "nodes": [11302346670, 11302352071, 11302342876, 11302352072, 11302346673, 11302346670], "tags": {"building": "warehouse"}}, {"type": "way", "id": 1219763602, "nodes": [11302350754, 11302352072, 11302342876, 11302350755, 11302350754], "tags": {"building": "warehouse"}}, {"type": "way", "id": 1222264296, "nodes": [11335998050, 11335998051, 11335998052, 11335998053, 11335998054, 11335998055, 11335998056, 11335998050], "tags": {"building": "warehouse"}}, {"type": "way", "id": 1228944796, "nodes": [11396912700, 11396912696, 4094273094, 11396912701, 11396912700], "tags": {"addr:city": "S\u00e3o Paulo", "addr:housenumber": "712", "addr:postcode": "01405-001", "addr:street": "Rua Pamplona", "amenity": "post_office"}}, {"type": "way", "id": 1292697641, "nodes": [11983705011, 11983705010, 11983705013, 5890855118, 11983705014, 11983705011], "tags": {"addr:city": "S\u00e3o Paulo", "addr:housenumber": "751", "addr:postcode": "08021-000", "addr:street": "Avenida Nordestina", "amenity": "post_office"}}, {"type": "way", "id": 1413079345, "nodes": [12986072260, 12986072261, 12986072262, 12986072266, 12986072265, 12986072264, 12986072267, 12986072263, 12986072260], "tags": {"building": "warehouse", "name": "Anjun"}}, {"type": "way", "id": 1413079346, "nodes": [12986072269, 12986072270, 12986072271, 12986072272, 12986072273, 12986072274, 12986072275, 12986072276, 12986072269], "tags": {"building": "warehouse"}}, {"type": "way", "id": 1413079347, "nodes": [12986072277, 12986072278, 12986072279, 12986072281, 12986072282, 12986072283, 12986072284, 12986072286, 12986072285, 12986072280, 12986072277], "tags": {"building": "warehouse"}}, {"type": "way", "id": 1413079349, "nodes": [12986131006, 12986131007, 12986131008, 12986131009, 12986131006], "tags": {"building": "warehouse"}}, {"type": "relation", "id": 4602996, "members": [{"type": "way", "ref": 329032706, "role": "outer"}, {"type": "way", "ref": 329033072, "role": "outer"}, {"type": "way", "ref": 329033164, "role": "outer"}, {"type": "way", "ref": 329032955, "role": "outer"}, {"type": "way", "ref": 329033064, "role": "outer"}, {"type": "way", "ref": 329032890, "role": "outer"}, {"type": "way", "ref": 329032688, "role": "outer"}, {"type": "way", "ref": 329033018, "role": "outer"}, {"type": "way", "ref": 329032804, "role": "outer"}, {"type": "way", "ref": 329032925, "role": "outer"}, {"type": "way", "ref": 329033088, "role": "outer"}, {"type": "way", "ref": 329032940, "role": "outer"}, {"type": "way", "ref": 329032858, "role": "outer"}, {"type": "way", "ref": 329033045, "role": "outer"}, {"type": "way", "ref": 329032943, "role": "outer"}, {"type": "way", "ref": 329032912, "role": "outer"}, {"type": "way", "ref": 329033004, "role": "outer"}, {"type": "way", "ref": 329032826, "role": "outer"}, {"type": "way", "ref": 329032948, "role": "outer"}, {"type": "way", "ref": 329032609, "role": "outer"}, {"type": "way", "ref": 329033049, "role": "outer"}, {"type": "way", "ref": 329032929, "role": "outer"}, {"type": "way", "ref": 329032771, "role": "outer"}, {"type": "way", "ref": 329033008, "role": "outer"}, {"type": "way", "ref": 329032915, "role": "outer"}, {"type": "way", "ref": 329032916, "role": "outer"}, {"type": "way", "ref": 329033078, "role": "outer"}, {"type": "way", "ref": 329032786, "role": "outer"}, {"type": "way", "ref": 329032577, "role": "outer"}, {"type": "way", "ref": 329033032, "role": "outer"}, {"type": "way", "ref": 329032861, "role": "outer"}, {"type": "way", "ref": 329033168, "role": "outer"}, {"type": "way", "ref": 329032757, "role": "outer"}, {"type": "way", "ref": 329033051, "role": "outer"}, {"type": "way", "ref": 329033021, "role": "outer"}, {"type": "way", "ref": 329032707, "role": "outer"}, {"type": "way", "ref": 329032546, "role": "outer"}, {"type": "way", "ref": 329032678, "role": "outer"}, {"type": "way", "ref": 329032542, "role": "outer"}, {"type": "way", "ref": 329032677, "role": "outer"}, {"type": "way", "ref": 329032935, "role": "outer"}, {"type": "way", "ref": 329032779, "role": "outer"}, {"type": "way", "ref": 329032723, "role": "outer"}, {"type": "way", "ref": 329032724, "role": "outer"}, {"type": "way", "ref": 329032957, "role": "outer"}], "tags": {"addr:city": "S\u00e3o Paulo", "addr:housenumber": "306", "addr:postcode": "01024-900", "addr:street": "Rua da Cantareira", "addr:suburb": "S\u00e9", "alt_name": "Mercado Municipal Paulistano", "amenity": "marketplace", "architect": "Francisco de Paula Ramos de Azevedo", "building": "warehouse", "building:architecture": "eclectic", "building:levels": "2", "building:use": "commercial", "engineer": "Felisberto Ranzini", "height": "30", "historic": "building", "hotspot": "yes", "loc_name": "Mercad\u00e3o", "name": "Mercado Municipal de S\u00e3o Paulo", "name:en": "Municipal Market of S\u00e3o Paulo", "old_name": "Mercado Cantareira", "opening_hours": "Mo-Sa 05:00-16:00", "operator": "Secretaria do A", "phone": "+55 11 3228 0339", "short_name": "Mercado de S\u00e3o Paulo", "source": "http://www.saopaulo.sp.gov.br/conhecasp/turismo_pontos-turisticos_mercado-municipal", "start_date": "1933-01-25", "tourism": "attraction", "type": "multipolygon", "website": "https://oportaldomercadao.com.br/", "wikidata": "Q4120323", "wikipedia": "pt:Mercado Municipal de S\u00e3o Paulo"}}]}